{"type":"FeatureCollection","features":[{"type":"Feature","geometry":{"type":"Polygon","coordinates":[[[8.3718,48.7776],[8.3801,48.7868],[8.3872,48.7904],[8.3905,48.8039],[8.3997,48.8027],[8.4157,48.7928],[8.4258,48.7917],[8.4256,48.7826],[8.4319,48.7777],[8.4335,48.7703],[8.4288,48.7594],[8.4209,48.7544],[8.4217,48.7437],[8.411,48.7497],[8.4059,48.7582],[8.3819,48.7591],[8.3718,48.7776]]]},"properties":{"warnId":"mow.DE-BW-RA-W025-20261003-003","strokeColor":"#C4C4C4","strokeOpacity":1,"strokeWeight":1,"fillColor":"#C4C4C4","fillOpacity":0.5,"zIndex":0},"id":"0"}]}