{"type":"FeatureCollection","features":[{"type":"Feature","geometry":{"type":"Polygon","coordinates":[[[10.0382,54.1702],[10.0383,54.172],[10.0389,54.1736],[10.04,54.1752],[10.0417,54.1766],[10.0438,54.1779],[10.0463,54.1788],[10.049,54.1794],[10.0519,54.1797],[10.0549,54.1797],[10.0578,54.1793],[10.0604,54.1787],[10.0629,54.1777],[10.0649,54.1764],[10.0665,54.175],[10.0676,54.1734],[10.0681,54.1717],[10.0681,54.17],[10.0675,54.1683],[10.0663,54.1667],[10.0646,54.1653],[10.0625,54.1641],[10.0601,54.1631],[10.0573,54.1625],[10.0544,54.1622],[10.0515,54.1622],[10.0486,54.1626],[10.0459,54.1633],[10.0435,54.1642],[10.0414,54.1655],[10.0398,54.1669],[10.0388,54.1685],[10.0382,54.1702]]]},"properties":{"warnId":"mow.DE-SH-KI-SE099-20261002-99-000","strokeColor":"#C4C4C4","strokeOpacity":1,"strokeWeight":1,"fillColor":"#C4C4C4","fillOpacity":0.5,"zIndex":0},"id":"0"}]}