{"type":"FeatureCollection","features":[{"type":"Feature","geometry":{"type":"Polygon","coordinates":[[[12.9289,47.6724],[12.9289,47.6733],[12.9293,47.6741],[12.9298,47.6749],[12.9306,47.6756],[12.9316,47.6762],[12.9327,47.6767],[12.934,47.677],[12.9353,47.6771],[12.9366,47.6771],[12.9379,47.6769],[12.9391,47.6765],[12.9401,47.6759],[12.941,47.6753],[12.9417,47.6745],[12.9421,47.6737],[12.9423,47.6728],[12.9422,47.6719],[12.9419,47.671],[12.9413,47.6702],[12.9406,47.6695],[12.9396,47.6689],[12.9385,47.6685],[12.9372,47.6682],[12.9359,47.668],[12.9346,47.6681],[12.9333,47.6683],[12.9321,47.6687],[12.9311,47.6692],[12.9302,47.6699],[12.9295,47.6706],[12.9291,47.6715],[12.9289,47.6724]]]},"properties":{"warnId":"mow.DE-BY-TS-SE145-20261001-178-001","strokeColor":"#C4C4C4","strokeOpacity":1,"strokeWeight":1,"fillColor":"#C4C4C4","fillOpacity":0.5,"zIndex":0},"id":"0"}]}