{"type":"FeatureCollection","features":[{"type":"Feature","geometry":{"type":"Polygon","coordinates":[[[10.8562,52.5919],[10.8563,52.5931],[10.8565,52.5943],[10.8569,52.5955],[10.8576,52.5967],[10.8584,52.5978],[10.8594,52.5988],[10.8605,52.5998],[10.8618,52.6007],[10.8633,52.6016],[10.8648,52.6023],[10.8665,52.603],[10.8683,52.6035],[10.8701,52.6039],[10.8721,52.6043],[10.874,52.6045],[10.876,52.6045],[10.878,52.6045],[10.88,52.6044],[10.8819,52.6041],[10.8838,52.6037],[10.8856,52.6032],[10.8873,52.6026],[10.889,52.6019],[10.8905,52.6011],[10.8918,52.6003],[10.8931,52.5993],[10.8941,52.5983],[10.895,52.5972],[10.8957,52.5961],[10.8962,52.5949],[10.8966,52.5937],[10.8967,52.5925],[10.8967,52.5913],[10.8964,52.5901],[10.896,52.5889],[10.8954,52.5877],[10.8946,52.5866],[10.8936,52.5856],[10.8924,52.5846],[10.8911,52.5837],[10.8897,52.5828],[10.8881,52.5821],[10.8864,52.5815],[10.8847,52.5809],[10.8828,52.5805],[10.8809,52.5802],[10.8789,52.58],[10.8769,52.5799],[10.8749,52.5799],[10.873,52.58],[10.871,52.5803],[10.8692,52.5807],[10.8673,52.5812],[10.8656,52.5818],[10.864,52.5825],[10.8625,52.5833],[10.8611,52.5842],[10.8599,52.5851],[10.8588,52.5861],[10.8579,52.5872],[10.8572,52.5884],[10.8567,52.5895],[10.8564,52.5907],[10.8562,52.5919]]]},"properties":{"warnId":"mow.DE-NI-GF-W216-20261007-001","strokeColor":"#C4C4C4","strokeOpacity":1,"strokeWeight":1,"fillColor":"#C4C4C4","fillOpacity":0.5,"zIndex":0},"id":"0"}]}