{"type":"FeatureCollection","features":[{"type":"Feature","geometry":{"type":"Polygon","coordinates":[[[12.1487,51.4595],[12.1489,51.4631],[12.1755,51.4697],[12.1757,51.4822],[12.2031,51.4851],[12.201,51.4903],[12.207,51.4921],[12.2049,51.4978],[12.2083,51.4981],[12.2079,51.5026],[12.1973,51.5029],[12.1963,51.5067],[12.1904,51.5078],[12.1938,51.5084],[12.1928,51.5313],[12.1989,51.5313],[12.2019,51.5313],[12.2015,51.5346],[12.2068,51.5353],[12.2101,51.5419],[12.2222,51.5444],[12.219,51.5465],[12.2313,51.5473],[12.23,51.5528],[12.2365,51.5529],[12.2329,51.5611],[12.2432,51.5669],[12.2464,51.5664],[12.2506,51.5594],[12.2534,51.5606],[12.29,51.5608],[12.2949,51.5582],[12.2951,51.5545],[12.2902,51.5532],[12.2917,51.5438],[12.2739,51.5412],[12.2732,51.5298],[12.2888,51.5296],[12.2894,51.5324],[12.2934,51.5323],[12.2895,51.5222],[12.296,51.5202],[12.3001,51.5108],[12.2994,51.506],[12.29,51.504],[12.3053,51.4996],[12.2955,51.4913],[12.2944,51.489],[12.2855,51.4909],[12.2849,51.4895],[12.2864,51.4831],[12.2947,51.4814],[12.2898,51.4745],[12.3067,51.4703],[12.3018,51.4641],[12.3069,51.4615],[12.3152,51.4614],[12.3125,51.4509],[12.2907,51.4532],[12.2903,51.4483],[12.268,51.4467],[12.2634,51.438],[12.2588,51.4378],[12.2545,51.4385],[12.2558,51.4448],[12.2392,51.4507],[12.2347,51.4568],[12.2208,51.4583],[12.2182,51.4538],[12.2083,51.4537],[12.2041,51.4606],[12.1959,51.4587],[12.1951,51.4474],[12.1895,51.4481],[12.1915,51.4414],[12.2073,51.4405],[12.2046,51.4362],[12.2082,51.4356],[12.2081,51.4316],[12.2057,51.4252],[12.1921,51.4256],[12.1898,51.4209],[12.1859,51.4208],[12.1825,51.4324],[12.171,51.4342],[12.1696,51.4303],[12.1572,51.4327],[12.1576,51.4443],[12.1542,51.4444],[12.1543,51.446],[12.1584,51.446],[12.1583,51.4512],[12.1531,51.4525],[12.1534,51.4574],[12.1487,51.4595]]]},"properties":{"warnId":"mow.DE-SN-L-W093-20261001-000","strokeColor":"#FB8C00","strokeOpacity":1,"strokeWeight":1,"fillColor":"#FB8C00","fillOpacity":0.5,"zIndex":20},"id":"0"},{"type":"Feature","geometry":{"type":"Polygon","coordinates":[[[12.1721,51.3842],[12.1848,51.3876],[12.1781,51.3891],[12.1749,51.4003],[12.1778,51.404],[12.1735,51.4103],[12.1832,51.4108],[12.183,51.4141],[12.1866,51.4142],[12.1898,51.4209],[12.1921,51.4256],[12.2057,51.4252],[12.2081,51.4316],[12.2082,51.4356],[12.2046,51.4362],[12.2073,51.4405],[12.1915,51.4414],[12.1895,51.4481],[12.1951,51.4474],[12.1959,51.4587],[12.2041,51.4606],[12.2083,51.4537],[12.2182,51.4538],[12.2208,51.4583],[12.2347,51.4568],[12.2392,51.4507],[12.2558,51.4448],[12.2545,51.4385],[12.2588,51.4378],[12.2634,51.438],[12.268,51.4467],[12.2903,51.4483],[12.2907,51.4532],[12.3125,51.4509],[12.3152,51.4614],[12.3314,51.4617],[12.3313,51.4592],[12.3521,51.4567],[12.3556,51.4438],[12.3412,51.4441],[12.3325,51.434],[12.3377,51.4273],[12.3433,51.4273],[12.3401,51.4242],[12.3413,51.4185],[12.3383,51.418],[12.3331,51.4196],[12.312,51.4174],[12.2682,51.4198],[12.2704,51.4131],[12.2633,51.4116],[12.2641,51.403],[12.2495,51.4063],[12.255,51.4006],[12.2677,51.3967],[12.2565,51.3871],[12.2591,51.3813],[12.2373,51.3724],[12.2432,51.3711],[12.2409,51.3605],[12.2432,51.3485],[12.2407,51.345],[12.2216,51.3421],[12.2209,51.3381],[12.2121,51.336],[12.2121,51.3386],[12.193,51.3323],[12.1903,51.3514],[12.1905,51.3539],[12.1955,51.3544],[12.1964,51.3604],[12.1861,51.3621],[12.1856,51.366],[12.194,51.3695],[12.1929,51.3715],[12.1818,51.3685],[12.1828,51.3745],[12.1895,51.3755],[12.19,51.3795],[12.1808,51.3755],[12.1752,51.3759],[12.177,51.3774],[12.1747,51.3794],[12.1774,51.3805],[12.1721,51.3842]]]},"properties":{"warnId":"mow.DE-SN-L-W093-20261001-000","strokeColor":"#FB8C00","strokeOpacity":1,"strokeWeight":1,"fillColor":"#FB8C00","fillOpacity":0.5,"zIndex":20},"id":"1"}]}