{"type":"FeatureCollection","features":[{"type":"Feature","geometry":{"type":"Polygon","coordinates":[[[10.8606,48.4428],[10.8606,48.4438],[10.8608,48.4447],[10.8611,48.4457],[10.8616,48.4466],[10.8622,48.4475],[10.8629,48.4484],[10.8638,48.4492],[10.8647,48.4499],[10.8658,48.4506],[10.867,48.4512],[10.8682,48.4517],[10.8695,48.4522],[10.8709,48.4525],[10.8723,48.4528],[10.8738,48.453],[10.8753,48.453],[10.8768,48.453],[10.8782,48.4529],[10.8797,48.4527],[10.8811,48.4524],[10.8824,48.452],[10.8837,48.4515],[10.8849,48.4509],[10.886,48.4503],[10.8871,48.4496],[10.888,48.4488],[10.8887,48.448],[10.8894,48.4471],[10.8899,48.4462],[10.8903,48.4452],[10.8906,48.4443],[10.8907,48.4433],[10.8907,48.4423],[10.8905,48.4413],[10.8902,48.4404],[10.8897,48.4394],[10.8891,48.4385],[10.8884,48.4377],[10.8875,48.4369],[10.8866,48.4361],[10.8855,48.4354],[10.8843,48.4348],[10.8831,48.4343],[10.8817,48.4339],[10.8804,48.4335],[10.8789,48.4333],[10.8775,48.4331],[10.876,48.433],[10.8745,48.433],[10.8731,48.4332],[10.8716,48.4334],[10.8702,48.4337],[10.8689,48.4341],[10.8676,48.4346],[10.8664,48.4351],[10.8653,48.4358],[10.8642,48.4365],[10.8633,48.4373],[10.8625,48.4381],[10.8619,48.439],[10.8613,48.4399],[10.861,48.4408],[10.8607,48.4418],[10.8606,48.4428]]]},"properties":{"warnId":"mow.DE-BY-A-W083-20261001-001","strokeColor":"#C4C4C4","strokeOpacity":1,"strokeWeight":1,"fillColor":"#C4C4C4","fillOpacity":0.5,"zIndex":0},"id":"0"}]}