{"type":"FeatureCollection","features":[{"type":"Feature","geometry":{"type":"Polygon","coordinates":[[[8.2347,50.0887],[8.2366,50.0895],[8.2359,50.0903],[8.2365,50.091],[8.2374,50.0912],[8.2384,50.0909],[8.2391,50.0908],[8.2394,50.0909],[8.2398,50.0907],[8.243,50.0894],[8.243,50.0897],[8.2444,50.0899],[8.2448,50.09],[8.2448,50.0896],[8.2445,50.0891],[8.2444,50.0887],[8.2443,50.0884],[8.2445,50.0873],[8.2488,50.0868],[8.2542,50.087],[8.2544,50.0873],[8.255,50.0874],[8.255,50.0887],[8.2556,50.089],[8.2561,50.0893],[8.257,50.0893],[8.2572,50.0901],[8.2568,50.0908],[8.2576,50.0911],[8.2582,50.0901],[8.2601,50.0873],[8.2609,50.0865],[8.2608,50.0859],[8.261,50.0855],[8.2608,50.0852],[8.2602,50.0849],[8.2592,50.0846],[8.2589,50.0842],[8.2583,50.084],[8.2581,50.0839],[8.2577,50.0837],[8.2575,50.0835],[8.2566,50.0833],[8.2562,50.0833],[8.2556,50.0831],[8.2559,50.0822],[8.254,50.0818],[8.2541,50.0811],[8.2545,50.081],[8.2546,50.0808],[8.2546,50.0807],[8.2548,50.0804],[8.2543,50.0788],[8.2541,50.0786],[8.2535,50.0787],[8.2533,50.0768],[8.2537,50.0768],[8.2534,50.0754],[8.2531,50.0752],[8.2488,50.0784],[8.2479,50.0782],[8.2455,50.078],[8.2366,50.0776],[8.2356,50.0868],[8.2347,50.0887]]]},"properties":{"warnId":"mow.DE-HE-WI-W097-20260926-000","strokeColor":"#FB8C00","strokeOpacity":1,"strokeWeight":1,"fillColor":"#FB8C00","fillOpacity":0.5,"zIndex":20},"id":"0"}]}