{"type":"FeatureCollection","features":[{"type":"Feature","geometry":{"type":"Polygon","coordinates":[[[9.9231,54.0943],[9.929,54.1026],[9.9466,54.1236],[9.9802,54.1477],[9.9946,54.15],[10.017,54.1409],[10.0165,54.1331],[10.0345,54.1292],[10.0228,54.1094],[10.0227,54.0616],[10.0276,54.0591],[10.0412,54.0568],[10.0558,54.0576],[10.0583,54.0516],[10.0409,54.0372],[10.0025,54.0248],[10,54.0243],[9.9986,54.024],[9.9634,54.0192],[9.9605,54.0191],[9.9511,54.019],[9.9462,54.0191],[9.9443,54.0217],[9.9454,54.0357],[9.931,54.0528],[9.9231,54.0943]]]},"properties":{"warnId":"mow.DE-SH-NMS-SE101-20261001-101-003","strokeColor":"#C4C4C4","strokeOpacity":1,"strokeWeight":1,"fillColor":"#C4C4C4","fillOpacity":0.5,"zIndex":0},"id":"0"}]}