{"type":"FeatureCollection","features":[{"type":"Feature","geometry":{"type":"Polygon","coordinates":[[[7.8757,48.413],[7.8757,48.414],[7.8759,48.415],[7.8763,48.4159],[7.8769,48.4168],[7.8777,48.4177],[7.8786,48.4186],[7.8798,48.4194],[7.8811,48.4202],[7.8826,48.4209],[7.8842,48.4215],[7.8859,48.4221],[7.8878,48.4226],[7.8897,48.4229],[7.8917,48.4233],[7.8938,48.4235],[7.8958,48.4236],[7.898,48.4236],[7.9,48.4235],[7.9021,48.4233],[7.9041,48.4231],[7.9061,48.4227],[7.9079,48.4223],[7.9097,48.4218],[7.9113,48.4212],[7.9128,48.4205],[7.9142,48.4198],[7.9154,48.419],[7.9164,48.4181],[7.9172,48.4172],[7.9178,48.4163],[7.9183,48.4154],[7.9185,48.4144],[7.9185,48.4134],[7.9183,48.4125],[7.9179,48.4115],[7.9173,48.4106],[7.9166,48.4097],[7.9156,48.4088],[7.9144,48.408],[7.9131,48.4072],[7.9116,48.4065],[7.91,48.4059],[7.9083,48.4053],[7.9065,48.4049],[7.9045,48.4045],[7.9025,48.4042],[7.9005,48.404],[7.8984,48.4038],[7.8963,48.4038],[7.8942,48.4039],[7.8921,48.4041],[7.8901,48.4043],[7.8881,48.4047],[7.8863,48.4051],[7.8845,48.4056],[7.8829,48.4062],[7.8814,48.4069],[7.88,48.4077],[7.8789,48.4084],[7.8778,48.4093],[7.877,48.4102],[7.8764,48.4111],[7.876,48.4121],[7.8757,48.413]]]},"properties":{"warnId":"mow.DE-BW-OG-W204-20261004-001","strokeColor":"#FB8C00","strokeOpacity":1,"strokeWeight":1,"fillColor":"#FB8C00","fillOpacity":0.5,"zIndex":20},"id":"0"}]}