{"type":"FeatureCollection","features":[{"type":"Feature","geometry":{"type":"Polygon","coordinates":[[[7.1732,50.4419],[7.186,50.4494],[7.1951,50.4643],[7.2029,50.4613],[7.2108,50.4514],[7.2052,50.4504],[7.2009,50.4462],[7.1848,50.4441],[7.181,50.4409],[7.1751,50.4401],[7.1732,50.4419]]]},"properties":{"warnId":"mow.DE-RP-KO-SE113-20261005-113-000","strokeColor":"#FB8C00","strokeOpacity":1,"strokeWeight":1,"fillColor":"#FB8C00","fillOpacity":0.5,"zIndex":20},"id":"0"},{"type":"Feature","geometry":{"type":"Polygon","coordinates":[[[7.1016,50.4779],[7.1026,50.4822],[7.1248,50.5021],[7.1387,50.5041],[7.1483,50.4982],[7.1515,50.5007],[7.1547,50.4985],[7.16,50.5001],[7.161,50.4895],[7.152,50.4795],[7.1401,50.4748],[7.14,50.4715],[7.1099,50.4712],[7.1114,50.4731],[7.1053,50.4784],[7.1016,50.4779]]]},"properties":{"warnId":"mow.DE-RP-KO-SE113-20261005-113-000","strokeColor":"#FB8C00","strokeOpacity":1,"strokeWeight":1,"fillColor":"#FB8C00","fillOpacity":0.5,"zIndex":20},"id":"1"},{"type":"Feature","geometry":{"type":"Polygon","coordinates":[[[7.0851,50.4374],[7.0942,50.4418],[7.1006,50.4508],[7.1171,50.4561],[7.1184,50.4572],[7.1236,50.4519],[7.1272,50.4532],[7.1292,50.4508],[7.1522,50.4524],[7.1605,50.4481],[7.1487,50.4439],[7.1479,50.4398],[7.1505,50.4391],[7.1431,50.4378],[7.1382,50.434],[7.1351,50.4323],[7.1046,50.4312],[7.0981,50.4322],[7.0945,50.4355],[7.0899,50.4335],[7.0851,50.4374]]]},"properties":{"warnId":"mow.DE-RP-KO-SE113-20261005-113-000","strokeColor":"#FB8C00","strokeOpacity":1,"strokeWeight":1,"fillColor":"#FB8C00","fillOpacity":0.5,"zIndex":20},"id":"10"},{"type":"Feature","geometry":{"type":"Polygon","coordinates":[[[7.2485,50.4372],[7.2535,50.4399],[7.2652,50.4462],[7.2731,50.446],[7.2772,50.4492],[7.2867,50.45],[7.2901,50.4501],[7.292,50.4467],[7.2901,50.4388],[7.2958,50.4354],[7.2886,50.4339],[7.2865,50.428],[7.2561,50.4251],[7.2486,50.4315],[7.2522,50.4355],[7.2485,50.4372]]]},"properties":{"warnId":"mow.DE-RP-KO-SE113-20261005-113-000","strokeColor":"#FB8C00","strokeOpacity":1,"strokeWeight":1,"fillColor":"#FB8C00","fillOpacity":0.5,"zIndex":20},"id":"11"},{"type":"Feature","geometry":{"type":"Polygon","coordinates":[[[7.1099,50.4712],[7.14,50.4715],[7.1401,50.4748],[7.152,50.4795],[7.161,50.4895],[7.1637,50.4883],[7.1709,50.4906],[7.1722,50.4885],[7.1765,50.4899],[7.1764,50.4881],[7.1983,50.4862],[7.2075,50.4876],[7.2018,50.4834],[7.179,50.4728],[7.1719,50.4708],[7.1509,50.4724],[7.1251,50.462],[7.1198,50.4618],[7.1201,50.4632],[7.1105,50.4652],[7.1099,50.4712]]]},"properties":{"warnId":"mow.DE-RP-KO-SE113-20261005-113-000","strokeColor":"#FB8C00","strokeOpacity":1,"strokeWeight":1,"fillColor":"#FB8C00","fillOpacity":0.5,"zIndex":20},"id":"12"},{"type":"Feature","geometry":{"type":"Polygon","coordinates":[[[7.181,50.4409],[7.1848,50.4441],[7.2009,50.4462],[7.2032,50.4433],[7.1992,50.4373],[7.2028,50.4346],[7.1872,50.4287],[7.1818,50.432],[7.181,50.4409]]]},"properties":{"warnId":"mow.DE-RP-KO-SE113-20261005-113-000","strokeColor":"#FB8C00","strokeOpacity":1,"strokeWeight":1,"fillColor":"#FB8C00","fillOpacity":0.5,"zIndex":20},"id":"13"},{"type":"Feature","geometry":{"type":"Polygon","coordinates":[[[7.2262,50.4349],[7.2399,50.4416],[7.2446,50.4392],[7.2535,50.4399],[7.2485,50.4372],[7.2522,50.4355],[7.2486,50.4315],[7.2561,50.4251],[7.2592,50.42],[7.2538,50.414],[7.2571,50.4127],[7.2626,50.4202],[7.2691,50.4233],[7.2829,50.4189],[7.2858,50.4124],[7.2857,50.4095],[7.2779,50.4079],[7.2804,50.4053],[7.2754,50.3985],[7.2777,50.397],[7.2717,50.398],[7.257,50.3945],[7.2451,50.4],[7.2401,50.4053],[7.2462,50.4131],[7.2432,50.4147],[7.2411,50.413],[7.2379,50.4155],[7.2336,50.4124],[7.2305,50.4146],[7.2284,50.4188],[7.2317,50.4261],[7.2262,50.4349]]]},"properties":{"warnId":"mow.DE-RP-KO-SE113-20261005-113-000","strokeColor":"#FB8C00","strokeOpacity":1,"strokeWeight":1,"fillColor":"#FB8C00","fillOpacity":0.5,"zIndex":20},"id":"14"},{"type":"Feature","geometry":{"type":"Polygon","coordinates":[[[7.0786,50.4088],[7.0895,50.4144],[7.089,50.4166],[7.086,50.4163],[7.0874,50.42],[7.0953,50.4229],[7.0899,50.4335],[7.0945,50.4355],[7.0981,50.4322],[7.1046,50.4312],[7.1351,50.4323],[7.1382,50.434],[7.1392,50.4302],[7.146,50.4342],[7.1498,50.4333],[7.1471,50.4282],[7.15,50.4278],[7.17,50.4212],[7.1714,50.4206],[7.1556,50.42],[7.1447,50.4174],[7.1448,50.4154],[7.136,50.4149],[7.1344,50.4127],[7.1293,50.4149],[7.131,50.4112],[7.1096,50.4077],[7.1012,50.4093],[7.0964,50.4075],[7.099,50.4099],[7.0967,50.4116],[7.0899,50.4054],[7.0948,50.3948],[7.0831,50.4003],[7.0786,50.4088]]]},"properties":{"warnId":"mow.DE-RP-KO-SE113-20261005-113-000","strokeColor":"#FB8C00","strokeOpacity":1,"strokeWeight":1,"fillColor":"#FB8C00","fillOpacity":0.5,"zIndex":20},"id":"15"},{"type":"Feature","geometry":{"type":"Polygon","coordinates":[[[7.0376,50.4025],[7.0404,50.4041],[7.0442,50.4132],[7.0581,50.4189],[7.0625,50.4277],[7.0739,50.4289],[7.0851,50.4374],[7.0899,50.4335],[7.0953,50.4229],[7.0874,50.42],[7.086,50.4163],[7.089,50.4166],[7.0895,50.4144],[7.0786,50.4088],[7.0831,50.4003],[7.0662,50.3984],[7.0549,50.3952],[7.0512,50.3916],[7.0475,50.3924],[7.0457,50.3941],[7.0376,50.4025]]]},"properties":{"warnId":"mow.DE-RP-KO-SE113-20261005-113-000","strokeColor":"#FB8C00","strokeOpacity":1,"strokeWeight":1,"fillColor":"#FB8C00","fillOpacity":0.5,"zIndex":20},"id":"16"},{"type":"Feature","geometry":{"type":"Polygon","coordinates":[[[7.17,50.4212],[7.1872,50.4287],[7.2028,50.4346],[7.2262,50.4349],[7.2317,50.4261],[7.2284,50.4188],[7.2305,50.4146],[7.2336,50.4124],[7.2379,50.4155],[7.2411,50.413],[7.2432,50.4147],[7.2462,50.4131],[7.2401,50.4053],[7.2313,50.4061],[7.2289,50.4135],[7.2254,50.4142],[7.2204,50.4131],[7.2232,50.4092],[7.22,50.408],[7.2014,50.4079],[7.1928,50.4117],[7.1717,50.418],[7.1714,50.4206],[7.17,50.4212]]]},"properties":{"warnId":"mow.DE-RP-KO-SE113-20261005-113-000","strokeColor":"#FB8C00","strokeOpacity":1,"strokeWeight":1,"fillColor":"#FB8C00","fillOpacity":0.5,"zIndex":20},"id":"2"},{"type":"Feature","geometry":{"type":"Polygon","coordinates":[[[7.0899,50.4054],[7.0967,50.4116],[7.099,50.4099],[7.0964,50.4075],[7.1012,50.4093],[7.1096,50.4077],[7.131,50.4112],[7.1293,50.4149],[7.1344,50.4127],[7.136,50.4149],[7.1448,50.4154],[7.1447,50.4174],[7.1556,50.42],[7.1714,50.4206],[7.1717,50.418],[7.1928,50.4117],[7.1891,50.4102],[7.1795,50.4112],[7.173,50.4076],[7.1746,50.4065],[7.1611,50.4024],[7.1538,50.3956],[7.1203,50.3839],[7.1212,50.3879],[7.1293,50.3891],[7.1323,50.393],[7.1311,50.3976],[7.1224,50.4023],[7.124,50.4057],[7.1019,50.4033],[7.1009,50.3928],[7.0997,50.3943],[7.0948,50.3948],[7.0899,50.4054]]]},"properties":{"warnId":"mow.DE-RP-KO-SE113-20261005-113-000","strokeColor":"#FB8C00","strokeOpacity":1,"strokeWeight":1,"fillColor":"#FB8C00","fillOpacity":0.5,"zIndex":20},"id":"3"},{"type":"Feature","geometry":{"type":"Polygon","coordinates":[[[7.15,50.4278],[7.1732,50.4419],[7.1751,50.4401],[7.181,50.4409],[7.1818,50.432],[7.1872,50.4287],[7.17,50.4212],[7.15,50.4278]]]},"properties":{"warnId":"mow.DE-RP-KO-SE113-20261005-113-000","strokeColor":"#FB8C00","strokeOpacity":1,"strokeWeight":1,"fillColor":"#FB8C00","fillOpacity":0.5,"zIndex":20},"id":"4"},{"type":"Feature","geometry":{"type":"Polygon","coordinates":[[[7.1171,50.4561],[7.1198,50.4618],[7.1251,50.462],[7.1509,50.4724],[7.1719,50.4708],[7.179,50.4728],[7.1818,50.4692],[7.1777,50.4613],[7.1633,50.4562],[7.1584,50.4566],[7.1595,50.4553],[7.1539,50.4549],[7.1522,50.4524],[7.1292,50.4508],[7.1272,50.4532],[7.1236,50.4519],[7.1184,50.4572],[7.1171,50.4561]]]},"properties":{"warnId":"mow.DE-RP-KO-SE113-20261005-113-000","strokeColor":"#FB8C00","strokeOpacity":1,"strokeWeight":1,"fillColor":"#FB8C00","fillOpacity":0.5,"zIndex":20},"id":"5"},{"type":"Feature","geometry":{"type":"Polygon","coordinates":[[[7.2333,50.4459],[7.2409,50.449],[7.2375,50.4615],[7.2425,50.461],[7.243,50.4669],[7.2662,50.4707],[7.2672,50.4694],[7.2746,50.4742],[7.2706,50.4767],[7.283,50.4751],[7.289,50.4714],[7.2902,50.4605],[7.2949,50.4582],[7.2981,50.4591],[7.2996,50.4555],[7.2867,50.45],[7.2772,50.4492],[7.2731,50.446],[7.2652,50.4462],[7.2535,50.4399],[7.2446,50.4392],[7.2399,50.4416],[7.2333,50.4459]]]},"properties":{"warnId":"mow.DE-RP-KO-SE113-20261005-113-000","strokeColor":"#FB8C00","strokeOpacity":1,"strokeWeight":1,"fillColor":"#FB8C00","fillOpacity":0.5,"zIndex":20},"id":"6"},{"type":"Feature","geometry":{"type":"Polygon","coordinates":[[[7.1387,50.5041],[7.1481,50.5122],[7.1575,50.5117],[7.1763,50.5099],[7.1999,50.4932],[7.2068,50.4958],[7.2117,50.4925],[7.2075,50.4876],[7.1983,50.4862],[7.1764,50.4881],[7.1765,50.4899],[7.1722,50.4885],[7.1709,50.4906],[7.1637,50.4883],[7.161,50.4895],[7.16,50.5001],[7.1547,50.4985],[7.1515,50.5007],[7.1483,50.4982],[7.1387,50.5041]]]},"properties":{"warnId":"mow.DE-RP-KO-SE113-20261005-113-000","strokeColor":"#FB8C00","strokeOpacity":1,"strokeWeight":1,"fillColor":"#FB8C00","fillOpacity":0.5,"zIndex":20},"id":"7"},{"type":"Feature","geometry":{"type":"Polygon","coordinates":[[[7.1382,50.434],[7.1431,50.4378],[7.1505,50.4391],[7.1479,50.4398],[7.1487,50.4439],[7.1605,50.4481],[7.1522,50.4524],[7.1539,50.4549],[7.1595,50.4553],[7.1584,50.4566],[7.1633,50.4562],[7.1777,50.4613],[7.1818,50.4692],[7.1863,50.471],[7.1951,50.4643],[7.186,50.4494],[7.1732,50.4419],[7.15,50.4278],[7.1471,50.4282],[7.1498,50.4333],[7.146,50.4342],[7.1392,50.4302],[7.1382,50.434]]]},"properties":{"warnId":"mow.DE-RP-KO-SE113-20261005-113-000","strokeColor":"#FB8C00","strokeOpacity":1,"strokeWeight":1,"fillColor":"#FB8C00","fillOpacity":0.5,"zIndex":20},"id":"8"},{"type":"Feature","geometry":{"type":"Polygon","coordinates":[[[7.179,50.4728],[7.2018,50.4834],[7.202,50.4751],[7.2092,50.4709],[7.2214,50.4688],[7.2341,50.4707],[7.2421,50.4686],[7.243,50.4669],[7.2425,50.461],[7.2375,50.4615],[7.2409,50.449],[7.2333,50.4459],[7.2399,50.4416],[7.2262,50.4349],[7.2028,50.4346],[7.1992,50.4373],[7.2032,50.4433],[7.2009,50.4462],[7.2052,50.4504],[7.2108,50.4514],[7.2029,50.4613],[7.1951,50.4643],[7.1863,50.471],[7.1818,50.4692],[7.179,50.4728]]]},"properties":{"warnId":"mow.DE-RP-KO-SE113-20261005-113-000","strokeColor":"#FB8C00","strokeOpacity":1,"strokeWeight":1,"fillColor":"#FB8C00","fillOpacity":0.5,"zIndex":20},"id":"9"}]}