{"type":"FeatureCollection","features":[{"type":"Feature","geometry":{"type":"Polygon","coordinates":[[[12.9224,52.3893],[12.9225,52.3896],[12.9226,52.39],[12.9229,52.3903],[12.9232,52.3906],[12.9237,52.3908],[12.9242,52.391],[12.9247,52.3911],[12.9253,52.3912],[12.9259,52.3912],[12.9265,52.3911],[12.927,52.3909],[12.9274,52.3907],[12.9279,52.3905],[12.9281,52.3901],[12.9283,52.3898],[12.9284,52.3894],[12.9284,52.3891],[12.9282,52.3887],[12.928,52.3884],[12.9276,52.3881],[12.9272,52.3879],[12.9267,52.3877],[12.9261,52.3876],[12.9256,52.3875],[12.925,52.3876],[12.9244,52.3876],[12.9239,52.3878],[12.9234,52.388],[12.923,52.3883],[12.9227,52.3886],[12.9225,52.3889],[12.9224,52.3893]]]},"properties":{"warnId":"mow.DE-BB-BRB-SE081-20261005-81-001","strokeColor":"#C4C4C4","strokeOpacity":1,"strokeWeight":1,"fillColor":"#C4C4C4","fillOpacity":0.5,"zIndex":0},"id":"0"}]}