{"type":"FeatureCollection","features":[{"type":"Feature","geometry":{"type":"Polygon","coordinates":[[[7.1686,49.648],[7.1686,49.6482],[7.1686,49.6484],[7.1686,49.6486],[7.1687,49.6488],[7.1689,49.649],[7.1692,49.6491],[7.1694,49.6493],[7.1697,49.6494],[7.1701,49.6494],[7.1704,49.6494],[7.1707,49.6494],[7.171,49.6493],[7.1713,49.6492],[7.1716,49.649],[7.1718,49.6489],[7.1719,49.6487],[7.172,49.6484],[7.172,49.6482],[7.1719,49.648],[7.1718,49.6478],[7.1716,49.6476],[7.1714,49.6475],[7.1711,49.6473],[7.1708,49.6473],[7.1705,49.6472],[7.1701,49.6472],[7.1698,49.6472],[7.1695,49.6473],[7.1692,49.6474],[7.169,49.6476],[7.1688,49.6478],[7.1686,49.648]]]},"properties":{"warnId":"mow.DE-RP-TR-SE004-20261009-4-001","strokeColor":"#C4C4C4","strokeOpacity":1,"strokeWeight":1,"fillColor":"#C4C4C4","fillOpacity":0.5,"zIndex":0},"id":"0"}]}