{"type":"FeatureCollection","features":[{"type":"Feature","geometry":{"type":"Polygon","coordinates":[[[6.2008,51.5269],[6.2157,51.5406],[6.2253,51.543],[6.2357,51.5425],[6.2433,51.5473],[6.2589,51.5374],[6.2756,51.5393],[6.2737,51.5426],[6.2826,51.5393],[6.2985,51.5433],[6.3165,51.5439],[6.3266,51.5494],[6.3252,51.551],[6.3374,51.5612],[6.359,51.5704],[6.349,51.5716],[6.3545,51.575],[6.3644,51.5764],[6.3692,51.5731],[6.3774,51.5661],[6.3938,51.5619],[6.4072,51.5612],[6.4144,51.5651],[6.4206,51.5625],[6.4172,51.5553],[6.4022,51.5524],[6.4018,51.5486],[6.3983,51.5486],[6.3874,51.5381],[6.3826,51.5384],[6.3789,51.5362],[6.3831,51.533],[6.3895,51.5336],[6.3932,51.5291],[6.3991,51.528],[6.3995,51.5245],[6.3918,51.5203],[6.3908,51.4998],[6.3933,51.4995],[6.3909,51.4925],[6.4,51.4823],[6.3959,51.4802],[6.3757,51.4847],[6.3631,51.4842],[6.3441,51.4881],[6.34,51.4908],[6.3149,51.4866],[6.3162,51.4817],[6.2988,51.4811],[6.2953,51.476],[6.3031,51.4733],[6.2988,51.4698],[6.2877,51.4689],[6.2869,51.4671],[6.2648,51.4834],[6.257,51.4836],[6.2492,51.4879],[6.2362,51.4833],[6.2192,51.484],[6.213,51.4911],[6.2124,51.5132],[6.2008,51.5269]]]},"properties":{"warnId":"mow.DE-NW-KLE-SE058-20261005-58-001","strokeColor":"#C4C4C4","strokeOpacity":1,"strokeWeight":1,"fillColor":"#C4C4C4","fillOpacity":0.5,"zIndex":0},"id":"0"}]}