{"type":"FeatureCollection","features":[{"type":"Feature","geometry":{"type":"Polygon","coordinates":[[[8.474,50.0989],[8.475,50.1016],[8.4776,50.1086],[8.4799,50.1099],[8.5098,50.1171],[8.5247,50.1165],[8.573,50.1323],[8.5886,50.139],[8.5991,50.1577],[8.5918,50.1597],[8.5904,50.1678],[8.5961,50.1733],[8.6223,50.1917],[8.64,50.2039],[8.6515,50.2086],[8.6639,50.2101],[8.68,50.2129],[8.7039,50.2186],[8.7103,50.2227],[8.7129,50.2257],[8.7185,50.2256],[8.7313,50.218],[8.7318,50.2112],[8.7311,50.2032],[8.7187,50.1963],[8.7054,50.1918],[8.7017,50.1807],[8.7201,50.1658],[8.7241,50.1632],[8.7315,50.1624],[8.7398,50.1632],[8.7578,50.1717],[8.7794,50.1782],[8.7901,50.1759],[8.7976,50.1756],[8.8009,50.1702],[8.7903,50.1635],[8.785,50.1568],[8.7837,50.1406],[8.7836,50.1365],[8.7718,50.1262],[8.7328,50.0838],[8.7184,50.0599],[8.7126,50.06],[8.6787,50.0579],[8.6232,50.0539],[8.595,50.0425],[8.5911,50.0351],[8.5901,50.0324],[8.5898,50.0311],[8.5894,50.0288],[8.5888,50.0243],[8.5882,50.0183],[8.5698,50.0246],[8.56,50.0257],[8.5303,50.0213],[8.5213,50.0211],[8.5162,50.0211],[8.5163,50.0313],[8.5385,50.0395],[8.5473,50.0421],[8.5625,50.0458],[8.5544,50.0664],[8.5492,50.0728],[8.5313,50.0815],[8.5252,50.0834],[8.5236,50.0815],[8.5225,50.0796],[8.5221,50.0774],[8.5199,50.0617],[8.5005,50.0753],[8.4779,50.0934],[8.474,50.0989]]]},"properties":{"warnId":"mow.DE-HE-F-SE119-20261009-128-001","strokeColor":"#C4C4C4","strokeOpacity":1,"strokeWeight":1,"fillColor":"#C4C4C4","fillOpacity":0.5,"zIndex":0},"id":"0"}]}