{"type":"FeatureCollection","features":[{"type":"Feature","geometry":{"type":"Polygon","coordinates":[[[8.1711,50.0773],[8.1713,50.0793],[8.1719,50.0811],[8.1729,50.0828],[8.1744,50.0844],[8.1764,50.0857],[8.1787,50.0869],[8.1815,50.0878],[8.1846,50.0885],[8.1881,50.089],[8.1919,50.0892],[8.1959,50.0892],[8.2002,50.089],[8.2046,50.0886],[8.2092,50.0879],[8.2139,50.087],[8.2187,50.0858],[8.2235,50.0845],[8.2282,50.083],[8.2329,50.0813],[8.2374,50.0795],[8.2417,50.0775],[8.2459,50.0754],[8.2498,50.0731],[8.2534,50.0709],[8.2567,50.0685],[8.2596,50.0661],[8.2621,50.0637],[8.2642,50.0613],[8.266,50.059],[8.2672,50.0567],[8.268,50.0544],[8.2683,50.0523],[8.2682,50.0503],[8.2676,50.0484],[8.2665,50.0467],[8.265,50.0452],[8.2631,50.0439],[8.2607,50.0427],[8.258,50.0418],[8.2548,50.0411],[8.2514,50.0406],[8.2476,50.0404],[8.2436,50.0404],[8.2393,50.0406],[8.2348,50.041],[8.2302,50.0417],[8.2255,50.0426],[8.2208,50.0437],[8.216,50.0451],[8.2113,50.0466],[8.2066,50.0483],[8.2021,50.0501],[8.1978,50.0521],[8.1936,50.0542],[8.1897,50.0564],[8.1861,50.0587],[8.1828,50.0611],[8.1799,50.0635],[8.1774,50.0659],[8.1752,50.0683],[8.1735,50.0706],[8.1723,50.0729],[8.1715,50.0751],[8.1711,50.0773]]]},"properties":{"warnId":"mow.DE-HE-WI-W097-20260930-002","strokeColor":"#C4C4C4","strokeOpacity":1,"strokeWeight":1,"fillColor":"#C4C4C4","fillOpacity":0.5,"zIndex":0},"id":"0"}]}