{"type":"FeatureCollection","features":[{"type":"Feature","geometry":{"type":"Polygon","coordinates":[[[7.6102,50.2901],[7.6109,50.2912],[7.6121,50.2924],[7.6136,50.2934],[7.6154,50.2943],[7.6175,50.2948],[7.6196,50.2951],[7.6219,50.2952],[7.624,50.2949],[7.6261,50.2944],[7.628,50.2936],[7.6296,50.2926],[7.6308,50.2915],[7.6317,50.2902],[7.6322,50.2888],[7.6322,50.2873],[7.6319,50.2859],[7.631,50.2846],[7.6298,50.2834],[7.6283,50.2824],[7.6265,50.2816],[7.6249,50.2812],[7.6218,50.2831],[7.6118,50.289],[7.6102,50.2901]]]},"properties":{"warnId":"mow.DE-RP-WW-SE116-20261007-123-001","strokeColor":"#C4C4C4","strokeOpacity":1,"strokeWeight":1,"fillColor":"#C4C4C4","fillOpacity":0.5,"zIndex":0},"id":"0"}]}