{"type":"FeatureCollection","features":[{"type":"Feature","geometry":{"type":"Polygon","coordinates":[[[11.8582,51.2867],[11.8583,51.2876],[11.8586,51.2885],[11.8592,51.2893],[11.86,51.29],[11.8611,51.2906],[11.8623,51.2911],[11.8636,51.2914],[11.865,51.2915],[11.8664,51.2915],[11.8678,51.2913],[11.8691,51.2909],[11.8702,51.2904],[11.8712,51.2897],[11.872,51.289],[11.8724,51.2881],[11.8727,51.2873],[11.8726,51.2864],[11.8723,51.2855],[11.8717,51.2847],[11.8709,51.284],[11.8698,51.2834],[11.8686,51.2829],[11.8673,51.2826],[11.8659,51.2825],[11.8644,51.2825],[11.8631,51.2827],[11.8618,51.2831],[11.8606,51.2836],[11.8597,51.2842],[11.8589,51.285],[11.8584,51.2858],[11.8582,51.2867]]]},"properties":{"warnId":"mow.DE-ST-SK-W070-20261007-000","strokeColor":"#C4C4C4","strokeOpacity":1,"strokeWeight":1,"fillColor":"#C4C4C4","fillOpacity":0.5,"zIndex":0},"id":"0"}]}