{"type":"FeatureCollection","features":[{"type":"Feature","geometry":{"type":"Polygon","coordinates":[[[8.3384,49.581],[8.3384,49.5825],[8.3386,49.584],[8.339,49.5854],[8.3396,49.5868],[8.3405,49.5881],[8.3415,49.5894],[8.3428,49.5907],[8.3442,49.5918],[8.3458,49.5928],[8.3475,49.5938],[8.3493,49.5946],[8.3513,49.5953],[8.3534,49.5959],[8.3555,49.5963],[8.3577,49.5966],[8.36,49.5968],[8.3622,49.5968],[8.3645,49.5966],[8.3667,49.5964],[8.3688,49.596],[8.3709,49.5954],[8.3729,49.5947],[8.3748,49.5939],[8.3765,49.593],[8.3781,49.592],[8.3796,49.5909],[8.3808,49.5897],[8.3819,49.5884],[8.3828,49.587],[8.3835,49.5856],[8.3839,49.5842],[8.3842,49.5827],[8.3842,49.5813],[8.384,49.5798],[8.3836,49.5784],[8.3829,49.577],[8.3821,49.5756],[8.381,49.5743],[8.3798,49.5731],[8.3784,49.572],[8.3768,49.5709],[8.3751,49.57],[8.3732,49.5692],[8.3713,49.5685],[8.3693,49.5696],[8.363,49.5697],[8.3608,49.5713],[8.3595,49.5712],[8.3577,49.5711],[8.3589,49.5694],[8.3562,49.5693],[8.3564,49.5682],[8.3546,49.568],[8.3546,49.5677],[8.3537,49.5678],[8.3517,49.5684],[8.3497,49.569],[8.3478,49.5699],[8.346,49.5708],[8.3444,49.5718],[8.343,49.5729],[8.3417,49.5741],[8.3407,49.5754],[8.3398,49.5767],[8.3391,49.5781],[8.3386,49.5796],[8.3384,49.581]]]},"properties":{"warnId":"mow.DE-RP-LU-SE005-20260930-5-001","strokeColor":"#C4C4C4","strokeOpacity":1,"strokeWeight":1,"fillColor":"#C4C4C4","fillOpacity":0.5,"zIndex":0},"id":"0"}]}