{"type":"FeatureCollection","features":[{"type":"Feature","geometry":{"type":"Polygon","coordinates":[[[9.971,53.7818],[9.971,53.7821],[9.971,53.7825],[9.9711,53.7828],[9.9713,53.7831],[9.9716,53.7834],[9.9721,53.7836],[9.9726,53.7838],[9.9731,53.784],[9.9737,53.784],[9.9743,53.784],[9.9748,53.7839],[9.9754,53.7838],[9.9759,53.7836],[9.9763,53.7834],[9.9766,53.7831],[9.9768,53.7828],[9.9769,53.7824],[9.9769,53.7821],[9.9768,53.7817],[9.9765,53.7814],[9.9762,53.7811],[9.9758,53.7809],[9.9753,53.7807],[9.9748,53.7806],[9.9742,53.7805],[9.9736,53.7805],[9.973,53.7806],[9.9725,53.7807],[9.972,53.7809],[9.9716,53.7812],[9.9713,53.7815],[9.971,53.7818]]]},"properties":{"warnId":"mow.DE-SH-EH-SE028-20261001-28-002","strokeColor":"#FB8C00","strokeOpacity":1,"strokeWeight":1,"fillColor":"#FB8C00","fillOpacity":0.5,"zIndex":20},"id":"0"}]}