{"type":"FeatureCollection","features":[{"type":"Feature","geometry":{"type":"Polygon","coordinates":[[[8.222,48.6032],[8.2331,48.6062],[8.2475,48.6027],[8.2486,48.6085],[8.2329,48.6111],[8.2339,48.616],[8.2387,48.6156],[8.2408,48.6178],[8.2419,48.6234],[8.2555,48.6259],[8.2513,48.6336],[8.2456,48.6365],[8.2486,48.6428],[8.2414,48.6461],[8.2402,48.6571],[8.251,48.6617],[8.2575,48.6619],[8.2564,48.669],[8.2753,48.6686],[8.2982,48.6846],[8.2965,48.6934],[8.3055,48.6993],[8.3135,48.7001],[8.3204,48.7082],[8.3263,48.7117],[8.3361,48.7132],[8.3384,48.7091],[8.3638,48.706],[8.3608,48.7092],[8.3751,48.7204],[8.383,48.7158],[8.3851,48.7084],[8.4002,48.7027],[8.4064,48.7034],[8.4118,48.6938],[8.4106,48.6827],[8.4188,48.672],[8.4199,48.6642],[8.4307,48.6602],[8.4362,48.6534],[8.4296,48.6447],[8.4171,48.6463],[8.4144,48.6404],[8.4099,48.6396],[8.3893,48.6367],[8.3859,48.6321],[8.3884,48.6254],[8.3817,48.6222],[8.3828,48.6197],[8.3644,48.6151],[8.3656,48.6112],[8.3494,48.6096],[8.3523,48.6042],[8.3584,48.6029],[8.3568,48.6],[8.3419,48.5973],[8.3304,48.5921],[8.3237,48.5921],[8.3188,48.5886],[8.3154,48.5902],[8.2913,48.587],[8.2608,48.5893],[8.2368,48.6011],[8.222,48.6032]]]},"properties":{"warnId":"mow.DE-BW-RA-W025-20261001-001","strokeColor":"#C4C4C4","strokeOpacity":1,"strokeWeight":1,"fillColor":"#C4C4C4","fillOpacity":0.5,"zIndex":0},"id":"0"}]}