{"type":"FeatureCollection","features":[{"type":"Feature","geometry":{"type":"Polygon","coordinates":[[[8.5625,49.8432],[8.5693,49.8436],[8.5946,49.8597],[8.6196,49.8874],[8.6263,49.914],[8.6278,49.9254],[8.6298,49.9331],[8.6318,49.9394],[8.6333,49.9437],[8.6404,49.9432],[8.6551,49.9436],[8.6659,49.9467],[8.6667,49.9476],[8.6708,49.9529],[8.7244,49.9541],[8.7315,49.9527],[8.7343,49.9496],[8.748,49.9102],[8.7483,49.9091],[8.7497,49.9027],[8.7496,49.9019],[8.7494,49.9013],[8.7267,49.8709],[8.711,49.8569],[8.7042,49.851],[8.693,49.8457],[8.6789,49.8213],[8.6795,49.8173],[8.6775,49.808],[8.6748,49.8056],[8.6573,49.798],[8.6454,49.7962],[8.6235,49.8068],[8.6222,49.8124],[8.6201,49.8198],[8.6128,49.8347],[8.5989,49.8386],[8.59,49.8378],[8.5744,49.834],[8.5668,49.8312],[8.5625,49.8432]]]},"properties":{"warnId":"mow.DE-HE-DA-W184-20260930-001","strokeColor":"#C4C4C4","strokeOpacity":1,"strokeWeight":1,"fillColor":"#C4C4C4","fillOpacity":0.5,"zIndex":0},"id":"0"}]}