{"type":"FeatureCollection","features":[{"type":"Feature","geometry":{"type":"Polygon","coordinates":[[[8.5801,53.5175],[8.5801,53.5187],[8.5803,53.5199],[8.5806,53.521],[8.5812,53.5219],[8.5819,53.5228],[8.5827,53.5234],[8.5836,53.5239],[8.5845,53.5241],[8.5855,53.5241],[8.5865,53.5239],[8.5874,53.5234],[8.5882,53.5228],[8.5889,53.522],[8.5895,53.521],[8.5899,53.5199],[8.5901,53.5187],[8.5901,53.5176],[8.5899,53.5164],[8.5895,53.5153],[8.589,53.5144],[8.5883,53.5135],[8.5875,53.5129],[8.5866,53.5124],[8.5856,53.5122],[8.5847,53.5122],[8.5837,53.5124],[8.5828,53.5128],[8.582,53.5135],[8.5813,53.5143],[8.5807,53.5153],[8.5803,53.5164],[8.5801,53.5175]]]},"properties":{"warnId":"mow.DE-HB-HB-SE076-20261003-137-000","strokeColor":"#FB8C00","strokeOpacity":1,"strokeWeight":1,"fillColor":"#FB8C00","fillOpacity":0.5,"zIndex":20},"id":"0"}]}