{"type":"FeatureCollection","features":[{"type":"Feature","geometry":{"type":"Polygon","coordinates":[[[10.1837,51.2144],[10.1837,51.2179],[10.1871,51.2207],[10.2042,51.2284],[10.2177,51.2312],[10.2287,51.2318],[10.2331,51.2277],[10.2622,51.2225],[10.2982,51.1992],[10.3131,51.2032],[10.3158,51.2316],[10.3274,51.2359],[10.3375,51.2432],[10.3476,51.2487],[10.3588,51.2512],[10.374,51.2519],[10.3714,51.2573],[10.3616,51.2664],[10.358,51.2719],[10.3616,51.2782],[10.3732,51.2839],[10.3988,51.2948],[10.4267,51.306],[10.4386,51.3107],[10.451,51.313],[10.4651,51.3133],[10.476,51.3155],[10.4792,51.3221],[10.4705,51.3253],[10.4651,51.328],[10.4622,51.3337],[10.4607,51.3414],[10.4834,51.3407],[10.4835,51.3434],[10.4887,51.3421],[10.4994,51.3374],[10.507,51.3285],[10.5063,51.3249],[10.5017,51.321],[10.4988,51.3156],[10.4969,51.3116],[10.5083,51.3086],[10.5263,51.3048],[10.5285,51.3054],[10.5519,51.3142],[10.5596,51.3178],[10.573,51.3241],[10.6038,51.32],[10.6096,51.3184],[10.6128,51.3171],[10.6245,51.3071],[10.6767,51.2797],[10.6798,51.2753],[10.6947,51.2412],[10.7002,51.2257],[10.708,51.2166],[10.7152,51.2148],[10.7218,51.2134],[10.7327,51.2128],[10.741,51.2157],[10.7452,51.2178],[10.7617,51.2196],[10.8147,51.2225],[10.8354,51.2226],[10.8757,51.2199],[10.8947,51.2181],[10.8953,51.2059],[10.9215,51.2054],[10.9208,51.2],[10.9204,51.1971],[10.916,51.186],[10.9055,51.1798],[10.9061,51.1746],[10.9107,51.1648],[10.9166,51.1472],[10.9126,51.1334],[10.9106,51.1333],[10.8994,51.1315],[10.8822,51.1285],[10.8761,51.1274],[10.8776,51.1198],[10.8853,51.0988],[10.8801,51.0982],[10.8705,51.0967],[10.8398,51.0944],[10.7687,51.101],[10.7637,51.1058],[10.7496,51.1108],[10.7475,51.1113],[10.7455,51.1117],[10.7434,51.1118],[10.7355,51.1118],[10.7332,51.1117],[10.7316,51.1114],[10.7074,51.1022],[10.7037,51.0981],[10.6988,51.0833],[10.701,51.0752],[10.709,51.0606],[10.7105,51.0567],[10.7117,51.0529],[10.6817,51.0395],[10.6785,51.0386],[10.6424,51.0365],[10.624,51.037],[10.6141,51.0393],[10.6073,51.0538],[10.6051,51.0564],[10.5944,51.0547],[10.534,51.0634],[10.5243,51.0654],[10.5211,51.0697],[10.5156,51.0764],[10.5139,51.0781],[10.5109,51.0786],[10.4739,51.0789],[10.4508,51.077],[10.4479,51.0728],[10.4494,51.0723],[10.451,51.0634],[10.4444,51.0527],[10.4351,51.0494],[10.4331,51.0506],[10.392,51.0776],[10.3738,51.1013],[10.3663,51.1136],[10.3632,51.1165],[10.3572,51.1223],[10.3438,51.1308],[10.32,51.1424],[10.309,51.1462],[10.2897,51.1497],[10.2562,51.1499],[10.2213,51.1469],[10.2123,51.1448],[10.211,51.1442],[10.2088,51.143],[10.2086,51.1432],[10.2081,51.1435],[10.2039,51.1475],[10.2023,51.1491],[10.2021,51.1516],[10.2087,51.1646],[10.2288,51.1735],[10.234,51.1811],[10.2299,51.1871],[10.2107,51.1902],[10.2115,51.1916],[10.2054,51.2011],[10.2041,51.2023],[10.1901,51.2106],[10.1837,51.2144]]]},"properties":{"warnId":"mow.DE-TH-EF-SE012-20261003-12-001","strokeColor":"#C4C4C4","strokeOpacity":1,"strokeWeight":1,"fillColor":"#C4C4C4","fillOpacity":0.5,"zIndex":0},"id":"0"}]}