{"type":"FeatureCollection","features":[{"type":"Feature","geometry":{"type":"Polygon","coordinates":[[[7.9597,47.9742],[7.9606,47.9757],[7.9623,47.9753],[7.9652,47.9748],[7.9676,47.9745],[7.9705,47.9735],[7.9713,47.9743],[7.9715,47.9752],[7.9737,47.9749],[7.9767,47.9753],[7.9768,47.9753],[7.9783,47.977],[7.9788,47.977],[7.9792,47.9768],[7.9797,47.9768],[7.9808,47.9765],[7.9822,47.9767],[7.9833,47.977],[7.984,47.9777],[7.9845,47.978],[7.9849,47.9782],[7.9852,47.9783],[7.9872,47.9783],[7.989,47.9789],[7.9893,47.9783],[7.9895,47.9779],[7.9899,47.9761],[7.9898,47.9758],[7.9894,47.9754],[7.9891,47.9751],[7.9889,47.9749],[7.9895,47.9741],[7.9892,47.9733],[7.9887,47.9726],[7.9885,47.9719],[7.989,47.9717],[7.9881,47.9695],[7.9878,47.9689],[7.9867,47.9672],[7.9851,47.9644],[7.9851,47.9643],[7.9859,47.964],[7.9878,47.9663],[7.9889,47.9658],[7.9899,47.9648],[7.9899,47.9646],[7.99,47.9645],[7.9906,47.9641],[7.9917,47.9636],[7.9935,47.9629],[7.9931,47.9623],[7.9927,47.9617],[7.9923,47.9614],[7.9914,47.9613],[7.9907,47.9613],[7.9909,47.9611],[7.9914,47.961],[7.9915,47.9608],[7.9915,47.9604],[7.9915,47.9594],[7.9918,47.9576],[7.9918,47.9563],[7.9919,47.9551],[7.9924,47.954],[7.9926,47.953],[7.992,47.953],[7.9917,47.9527],[7.9916,47.953],[7.9911,47.9528],[7.9913,47.9525],[7.9911,47.9524],[7.9905,47.9531],[7.9914,47.9537],[7.9914,47.9539],[7.9905,47.9538],[7.9904,47.9538],[7.9897,47.9538],[7.9894,47.9536],[7.9874,47.9532],[7.9866,47.9528],[7.9845,47.9524],[7.9832,47.9521],[7.9822,47.9516],[7.9823,47.9514],[7.9823,47.9499],[7.9833,47.9484],[7.9833,47.9478],[7.9825,47.9468],[7.9827,47.9461],[7.9823,47.9459],[7.9818,47.9458],[7.9813,47.9459],[7.9809,47.9458],[7.9793,47.9461],[7.9763,47.9467],[7.973,47.9477],[7.9722,47.9496],[7.9723,47.9523],[7.9659,47.9569],[7.9667,47.9585],[7.9645,47.9612],[7.9651,47.9623],[7.9654,47.9624],[7.9659,47.9633],[7.9681,47.9676],[7.9655,47.9692],[7.9609,47.9719],[7.9606,47.9719],[7.9607,47.9723],[7.9602,47.973],[7.9597,47.9742]]]},"properties":{"warnId":"mow.DE-BW-FR-W022-20261007-002","strokeColor":"#FB8C00","strokeOpacity":1,"strokeWeight":1,"fillColor":"#FB8C00","fillOpacity":0.5,"zIndex":20},"id":"0"}]}