{"type":"FeatureCollection","features":[{"type":"Feature","geometry":{"type":"Polygon","coordinates":[[[10.8975,49.5333],[10.8982,49.5339],[10.9015,49.5352],[10.9105,49.5341],[10.9152,49.5336],[10.9175,49.5325],[10.9166,49.5297],[10.9159,49.5275],[10.9156,49.5259],[10.913,49.5249],[10.9107,49.5245],[10.9047,49.5231],[10.8975,49.5333]]]},"properties":{"warnId":"mow.DE-BY-N-SE137-20261007-166-000","strokeColor":"#FB8C00","strokeOpacity":1,"strokeWeight":1,"fillColor":"#FB8C00","fillOpacity":0.5,"zIndex":20},"id":"0"}]}