{"type":"FeatureCollection","features":[{"type":"Feature","geometry":{"type":"Polygon","coordinates":[[[11.5605,48.6431],[11.5765,48.6606],[11.5679,48.7049],[11.5722,48.7083],[11.656,48.7146],[11.6525,48.7005],[11.641,48.671],[11.6417,48.6558],[11.6163,48.6554],[11.606,48.6406],[11.5947,48.6316],[11.6142,48.6238],[11.6011,48.6183],[11.6005,48.6111],[11.5931,48.6091],[11.5854,48.6091],[11.5826,48.6068],[11.5804,48.6076],[11.5821,48.611],[11.5772,48.6117],[11.5745,48.6132],[11.5721,48.6138],[11.5605,48.6431]]]},"properties":{"warnId":"mow.DE-BY-IN-W139-20261009-000","strokeColor":"#FB8C00","strokeOpacity":1,"strokeWeight":1,"fillColor":"#FB8C00","fillOpacity":0.5,"zIndex":20},"id":"0"}]}