{"type":"FeatureCollection","features":[{"type":"Feature","geometry":{"type":"Polygon","coordinates":[[[8.7464,50.3677],[8.7464,50.3681],[8.7465,50.3684],[8.7467,50.3688],[8.7471,50.3691],[8.7475,50.3693],[8.7479,50.3695],[8.7484,50.3697],[8.749,50.3697],[8.7496,50.3698],[8.7501,50.3697],[8.7506,50.3695],[8.7511,50.3693],[8.7515,50.3691],[8.7518,50.3688],[8.752,50.3685],[8.7521,50.3681],[8.7521,50.3678],[8.752,50.3674],[8.7518,50.3671],[8.7515,50.3668],[8.7511,50.3665],[8.7506,50.3663],[8.7501,50.3662],[8.7496,50.3661],[8.749,50.3661],[8.7485,50.3662],[8.7479,50.3663],[8.7475,50.3665],[8.7471,50.3668],[8.7468,50.3671],[8.7465,50.3674],[8.7464,50.3677]]]},"properties":{"warnId":"mow.DE-HE-FB-W193-20261009-001","strokeColor":"#C4C4C4","strokeOpacity":1,"strokeWeight":1,"fillColor":"#C4C4C4","fillOpacity":0.5,"zIndex":0},"id":"0"}]}