{"type":"FeatureCollection","features":[{"type":"Feature","geometry":{"type":"Polygon","coordinates":[[[12.182,51.809],[12.1821,51.8103],[12.1826,51.8117],[12.1837,51.8131],[12.1851,51.8145],[12.187,51.8159],[12.1894,51.8173],[12.1921,51.8187],[12.1952,51.82],[12.1987,51.8212],[12.2024,51.8224],[12.2065,51.8235],[12.2107,51.8245],[12.2152,51.8254],[12.2198,51.8262],[12.2245,51.8269],[12.2293,51.8274],[12.2341,51.8278],[12.2389,51.8281],[12.2436,51.8283],[12.2482,51.8283],[12.2526,51.8281],[12.2568,51.8279],[12.2607,51.8275],[12.2643,51.8269],[12.2677,51.8263],[12.2707,51.8255],[12.2733,51.8246],[12.2754,51.8236],[12.2772,51.8225],[12.2785,51.8214],[12.2794,51.8201],[12.2798,51.8188],[12.2797,51.8175],[12.2791,51.8161],[12.2781,51.8147],[12.2766,51.8133],[12.2747,51.8119],[12.2724,51.8105],[12.2696,51.8092],[12.2665,51.8079],[12.2631,51.8066],[12.2593,51.8054],[12.2553,51.8043],[12.251,51.8033],[12.2465,51.8024],[12.2419,51.8017],[12.2372,51.801],[12.2324,51.8004],[12.2276,51.8],[12.2229,51.7997],[12.2182,51.7996],[12.2136,51.7996],[12.2092,51.7997],[12.205,51.8],[12.2011,51.8004],[12.1974,51.8009],[12.1941,51.8016],[12.1911,51.8023],[12.1885,51.8032],[12.1863,51.8042],[12.1846,51.8053],[12.1832,51.8065],[12.1824,51.8077],[12.182,51.809]]]},"properties":{"warnId":"mow.DE-ST-DE-W047-20261006-000","strokeColor":"#FB8C00","strokeOpacity":1,"strokeWeight":1,"fillColor":"#FB8C00","fillOpacity":0.5,"zIndex":20},"id":"0"}]}