{"type":"FeatureCollection","features":[{"type":"Feature","geometry":{"type":"Polygon","coordinates":[[[6.9978,51.4622],[6.9978,51.4628],[6.9979,51.4634],[6.9983,51.464],[6.9988,51.4645],[6.9995,51.465],[7.0003,51.4653],[7.0012,51.4656],[7.0022,51.4657],[7.0032,51.4658],[7.0042,51.4657],[7.0051,51.4654],[7.006,51.4651],[7.0067,51.4647],[7.0073,51.4642],[7.0077,51.4636],[7.0079,51.463],[7.0079,51.4623],[7.0078,51.4617],[7.0074,51.4612],[7.0069,51.4606],[7.0062,51.4602],[7.0054,51.4598],[7.0045,51.4596],[7.0035,51.4594],[7.0025,51.4594],[7.0015,51.4595],[7.0006,51.4597],[6.9997,51.4601],[6.999,51.4605],[6.9984,51.461],[6.998,51.4616],[6.9978,51.4622]]]},"properties":{"warnId":"mow.DE-NW-E-SE052-20261008-52-001","strokeColor":"#C4C4C4","strokeOpacity":1,"strokeWeight":1,"fillColor":"#C4C4C4","fillOpacity":0.5,"zIndex":0},"id":"0"}]}