{"type":"FeatureCollection","features":[{"type":"Feature","geometry":{"type":"Polygon","coordinates":[[[10.9183,50.0139],[10.9183,50.0157],[10.9185,50.0175],[10.9189,50.0195],[10.9195,50.0215],[10.9203,50.0236],[10.9213,50.0257],[10.9225,50.0278],[10.9238,50.0299],[10.9252,50.0319],[10.9268,50.0339],[10.9285,50.0359],[10.9297,50.0371],[10.9301,50.0369],[10.9294,50.0355],[10.9311,50.0352],[10.9326,50.0357],[10.9322,50.0367],[10.9321,50.0381],[10.9328,50.0387],[10.9337,50.0393],[10.9333,50.0404],[10.9342,50.0411],[10.9362,50.0426],[10.9383,50.0439],[10.9402,50.045],[10.9409,50.0448],[10.9425,50.0451],[10.9467,50.0456],[10.9477,50.0477],[10.9482,50.0478],[10.95,50.048],[10.9517,50.048],[10.9532,50.0478],[10.9547,50.0474],[10.9554,50.047],[10.9554,50.0459],[10.9564,50.0459],[10.9561,50.0433],[10.9583,50.0431],[10.9591,50.043],[10.9594,50.0424],[10.9598,50.0409],[10.96,50.0393],[10.9599,50.0375],[10.9597,50.0357],[10.9593,50.0337],[10.9587,50.0317],[10.9579,50.0296],[10.9569,50.0275],[10.9558,50.0254],[10.9545,50.0233],[10.953,50.0213],[10.9514,50.0193],[10.9497,50.0173],[10.9479,50.0155],[10.946,50.0137],[10.944,50.0121],[10.942,50.0106],[10.94,50.0093],[10.9379,50.0081],[10.9359,50.0072],[10.9339,50.0064],[10.9319,50.0058],[10.9301,50.0054],[10.9283,50.0052],[10.9266,50.0052],[10.925,50.0054],[10.9236,50.0058],[10.9223,50.0064],[10.9212,50.0073],[10.9202,50.0083],[10.9194,50.0094],[10.9189,50.0108],[10.9185,50.0123],[10.9183,50.0139]]]},"properties":{"warnId":"mow.DE-BY-BA-W140-20261001-000","strokeColor":"#C4C4C4","strokeOpacity":1,"strokeWeight":1,"fillColor":"#C4C4C4","fillOpacity":0.5,"zIndex":0},"id":"0"}]}