{"type":"FeatureCollection","features":[{"type":"Feature","geometry":{"type":"Polygon","coordinates":[[[7.7671,47.9248],[7.7752,47.9345],[7.7808,47.9357],[7.7843,47.9366],[7.7918,47.9325],[7.8078,47.9229],[7.8182,47.924],[7.8286,47.922],[7.8404,47.9209],[7.8427,47.9223],[7.851,47.9209],[7.8576,47.9118],[7.8683,47.9093],[7.8751,47.9035],[7.8508,47.8978],[7.8433,47.8933],[7.8346,47.8942],[7.8291,47.8997],[7.8242,47.8982],[7.8132,47.9073],[7.8104,47.9051],[7.8062,47.9082],[7.7997,47.9078],[7.7897,47.9143],[7.7799,47.9137],[7.7714,47.9159],[7.771,47.9219],[7.7671,47.9248]]]},"properties":{"warnId":"mow.DE-BW-FR-W022-20261009-000","strokeColor":"#C4C4C4","strokeOpacity":1,"strokeWeight":1,"fillColor":"#C4C4C4","fillOpacity":0.5,"zIndex":0},"id":"0"}]}