{"type":"FeatureCollection","features":[{"type":"Feature","geometry":{"type":"Polygon","coordinates":[[[11.0971,50.9638],[11.0971,50.9655],[11.0977,50.9671],[11.0988,50.9686],[11.1003,50.9699],[11.1022,50.9711],[11.1044,50.9719],[11.1068,50.9725],[11.1094,50.9728],[11.112,50.9727],[11.1146,50.9724],[11.1169,50.9717],[11.1191,50.9707],[11.1209,50.9695],[11.1223,50.9682],[11.1232,50.9666],[11.1236,50.965],[11.1235,50.9633],[11.123,50.9617],[11.1219,50.9602],[11.1204,50.9589],[11.1185,50.9578],[11.1163,50.9569],[11.1138,50.9563],[11.1113,50.956],[11.1086,50.9561],[11.1061,50.9564],[11.1037,50.9571],[11.1016,50.9581],[11.0998,50.9593],[11.0984,50.9607],[11.0975,50.9622],[11.0971,50.9638]]]},"properties":{"warnId":"mow.DE-TH-EF-W108-20261008-001","strokeColor":"#C4C4C4","strokeOpacity":1,"strokeWeight":1,"fillColor":"#C4C4C4","fillOpacity":0.5,"zIndex":0},"id":"0"}]}