{"type":"FeatureCollection","features":[{"type":"Feature","geometry":{"type":"Polygon","coordinates":[[[8.2379,49.6284],[8.2416,49.647],[8.2455,49.6505],[8.2788,49.6553],[8.2742,49.6604],[8.2502,49.6784],[8.2582,49.6889],[8.2881,49.6928],[8.3073,49.6885],[8.3167,49.6856],[8.3335,49.6827],[8.3363,49.6826],[8.3425,49.6825],[8.3474,49.6945],[8.3518,49.7088],[8.3517,49.7129],[8.3538,49.7305],[8.3942,49.736],[8.4002,49.7367],[8.4011,49.7367],[8.4076,49.7352],[8.4091,49.7332],[8.4097,49.7322],[8.4227,49.7263],[8.4375,49.7314],[8.4415,49.7321],[8.447,49.7305],[8.4443,49.7272],[8.4414,49.7241],[8.4392,49.7222],[8.4362,49.7204],[8.4328,49.7187],[8.4266,49.7166],[8.4202,49.7149],[8.4032,49.712],[8.4015,49.7117],[8.385,49.7076],[8.376,49.7045],[8.3687,49.701],[8.3626,49.6969],[8.3594,49.6933],[8.3575,49.6895],[8.3565,49.6835],[8.3564,49.6822],[8.357,49.6799],[8.3574,49.6782],[8.3612,49.6706],[8.3823,49.6292],[8.3844,49.6252],[8.3875,49.6214],[8.3913,49.6176],[8.3954,49.6147],[8.403,49.6103],[8.4042,49.6097],[8.4049,49.6092],[8.4067,49.6081],[8.411,49.604],[8.4122,49.6024],[8.4157,49.5949],[8.4058,49.5954],[8.3854,49.6032],[8.3764,49.6047],[8.3571,49.6079],[8.3525,49.6077],[8.3466,49.6],[8.3434,49.5958],[8.322,49.5944],[8.2849,49.5898],[8.281,49.5869],[8.2563,49.5912],[8.2446,49.6172],[8.2394,49.6226],[8.2379,49.6284]]]},"properties":{"warnId":"mow.DE-RP-MZ-SE114-20260930-125-001","strokeColor":"#C4C4C4","strokeOpacity":1,"strokeWeight":1,"fillColor":"#C4C4C4","fillOpacity":0.5,"zIndex":0},"id":"0"}]}