{"type":"FeatureCollection","features":[{"type":"Feature","geometry":{"type":"Polygon","coordinates":[[[6.9312,50.8375],[6.941,50.839],[6.9381,50.844],[6.9467,50.8455],[6.956,50.8352],[6.9739,50.8439],[6.9809,50.8409],[6.9797,50.834],[6.9871,50.8273],[7.0131,50.8231],[7.025,50.8183],[7.0293,50.8117],[7.0302,50.8007],[7.0192,50.8025],[7.0148,50.8005],[7.0166,50.7989],[6.9898,50.7923],[6.9891,50.7985],[6.9868,50.7977],[6.9828,50.8008],[6.9755,50.7984],[6.9694,50.8015],[6.9662,50.7995],[6.958,50.8043],[6.9421,50.804],[6.9348,50.8107],[6.9396,50.8119],[6.9312,50.8375]]]},"properties":{"warnId":"mow.DE-NW-BM-SE042-20261009-42-000","strokeColor":"#FB8C00","strokeOpacity":1,"strokeWeight":1,"fillColor":"#FB8C00","fillOpacity":0.5,"zIndex":20},"id":"0"}]}