{"type":"FeatureCollection","features":[{"type":"Feature","geometry":{"type":"Polygon","coordinates":[[[11.5588,48.728],[11.5615,48.7384],[11.5631,48.7459],[11.6097,48.7494],[11.6389,48.7484],[11.6388,48.7309],[11.6578,48.726],[11.663,48.7144],[11.6545,48.7108],[11.6425,48.7005],[11.6455,48.6848],[11.6402,48.67],[11.6435,48.6561],[11.6164,48.6536],[11.6118,48.6548],[11.6075,48.6507],[11.6083,48.6479],[11.6035,48.6394],[11.5986,48.6323],[11.6108,48.6225],[11.6072,48.6196],[11.6007,48.6167],[11.5971,48.6141],[11.6018,48.6105],[11.6023,48.6093],[11.5992,48.6085],[11.5915,48.6088],[11.582,48.6108],[11.5756,48.6009],[11.5715,48.6017],[11.5726,48.6047],[11.5683,48.6053],[11.5684,48.6064],[11.57,48.6088],[11.5703,48.6099],[11.5696,48.6113],[11.5698,48.6132],[11.5661,48.6133],[11.5671,48.6141],[11.568,48.614],[11.5684,48.6148],[11.5712,48.6147],[11.5716,48.6153],[11.5591,48.6393],[11.5818,48.667],[11.573,48.6984],[11.5718,48.7054],[11.5811,48.7086],[11.5588,48.728]]]},"properties":{"warnId":"mow.DE-BY-IN-W139-20261001-000","strokeColor":"#FB8C00","strokeOpacity":1,"strokeWeight":1,"fillColor":"#FB8C00","fillOpacity":0.5,"zIndex":20},"id":"0"}]}