{"type":"FeatureCollection","features":[{"type":"Feature","geometry":{"type":"Polygon","coordinates":[[[10.3872,51.9193],[10.3873,51.9221],[10.3879,51.925],[10.3889,51.9278],[10.3903,51.9305],[10.3922,51.9332],[10.3944,51.9357],[10.3971,51.938],[10.4001,51.9402],[10.4035,51.9422],[10.4071,51.944],[10.411,51.9456],[10.4152,51.9469],[10.4195,51.9479],[10.424,51.9487],[10.4286,51.9492],[10.4332,51.9494],[10.4379,51.9494],[10.4425,51.949],[10.447,51.9484],[10.4515,51.9475],[10.4557,51.9464],[10.4598,51.945],[10.4636,51.9433],[10.4671,51.9415],[10.4704,51.9394],[10.4732,51.9371],[10.4757,51.9347],[10.4778,51.9321],[10.4795,51.9295],[10.4808,51.9267],[10.4816,51.9239],[10.482,51.921],[10.4819,51.9181],[10.4813,51.9153],[10.4803,51.9124],[10.4789,51.9097],[10.477,51.9071],[10.4747,51.9046],[10.4721,51.9022],[10.4691,51.9],[10.4657,51.898],[10.4621,51.8963],[10.4582,51.8947],[10.454,51.8934],[10.4497,51.8924],[10.4452,51.8916],[10.4406,51.8911],[10.436,51.8908],[10.4313,51.8909],[10.4267,51.8912],[10.4222,51.8919],[10.4178,51.8927],[10.4135,51.8939],[10.4095,51.8953],[10.4056,51.8969],[10.4021,51.8988],[10.3989,51.9009],[10.396,51.9031],[10.3935,51.9056],[10.3914,51.9081],[10.3897,51.9108],[10.3884,51.9136],[10.3876,51.9164],[10.3872,51.9193]]]},"properties":{"warnId":"mow.DE-NI-GS-W211-20261008-001","strokeColor":"#C4C4C4","strokeOpacity":1,"strokeWeight":1,"fillColor":"#C4C4C4","fillOpacity":0.5,"zIndex":0},"id":"0"}]}