{"type":"FeatureCollection","features":[{"type":"Feature","geometry":{"type":"Polygon","coordinates":[[[11.5588,48.6434],[11.5751,48.6596],[11.5711,48.6891],[11.5687,48.7039],[11.5737,48.7082],[11.6269,48.7141],[11.6535,48.714],[11.6533,48.6989],[11.6413,48.6736],[11.6408,48.655],[11.6142,48.6542],[11.6066,48.6511],[11.6058,48.6475],[11.6051,48.6403],[11.6001,48.6373],[11.5938,48.6302],[11.6089,48.6233],[11.6084,48.6202],[11.6016,48.6182],[11.601,48.6164],[11.6032,48.6091],[11.6017,48.6089],[11.5982,48.6084],[11.5919,48.6089],[11.5893,48.6101],[11.5867,48.6109],[11.5846,48.6093],[11.5821,48.6069],[11.5761,48.6087],[11.5753,48.6098],[11.5727,48.6131],[11.5712,48.6141],[11.571,48.6156],[11.5588,48.6434]]]},"properties":{"warnId":"mow.DE-BY-IN-W139-20261008-000","strokeColor":"#FB8C00","strokeOpacity":1,"strokeWeight":1,"fillColor":"#FB8C00","fillOpacity":0.5,"zIndex":20},"id":"0"}]}