{"type":"FeatureCollection","features":[{"type":"Feature","geometry":{"type":"Polygon","coordinates":[[[9.2038,50.7137],[9.2038,50.7147],[9.204,50.7156],[9.2042,50.7166],[9.2047,50.7175],[9.2053,50.7184],[9.206,50.7192],[9.2068,50.72],[9.2078,50.7207],[9.2088,50.7214],[9.21,50.722],[9.2112,50.7225],[9.2126,50.723],[9.214,50.7233],[9.2154,50.7236],[9.2169,50.7238],[9.2184,50.7239],[9.2199,50.7239],[9.2214,50.7238],[9.2228,50.7236],[9.2243,50.7233],[9.2257,50.7229],[9.227,50.7225],[9.2282,50.722],[9.2294,50.7214],[9.2304,50.7207],[9.2314,50.7199],[9.2322,50.7191],[9.2329,50.7183],[9.2335,50.7174],[9.2339,50.7165],[9.2342,50.7156],[9.2343,50.7146],[9.2343,50.7137],[9.2342,50.7127],[9.2339,50.7118],[9.2335,50.7109],[9.2329,50.71],[9.2322,50.7092],[9.2313,50.7084],[9.2304,50.7076],[9.2293,50.707],[9.2281,50.7064],[9.2269,50.7058],[9.2256,50.7054],[9.2242,50.705],[9.2227,50.7047],[9.2213,50.7046],[9.2198,50.7045],[9.2183,50.7045],[9.2168,50.7046],[9.2153,50.7048],[9.2139,50.705],[9.2125,50.7054],[9.2112,50.7059],[9.2099,50.7064],[9.2088,50.707],[9.2077,50.7077],[9.2068,50.7084],[9.2059,50.7092],[9.2052,50.7101],[9.2047,50.7109],[9.2042,50.7118],[9.2039,50.7128],[9.2038,50.7137]]]},"properties":{"warnId":"mow.DE-HE-KS-SE106-20261006-106-000","strokeColor":"#B01917","strokeOpacity":1,"strokeWeight":1,"fillColor":"#B01917","fillOpacity":0.5,"zIndex":40},"id":"0"}]}