{"type":"FeatureCollection","features":[{"type":"Feature","geometry":{"type":"Polygon","coordinates":[[[8.4148,49.5546],[8.4149,49.5572],[8.4153,49.5601],[8.4156,49.5615],[8.4165,49.5636],[8.4173,49.5654],[8.4204,49.5693],[8.4227,49.572],[8.4232,49.5833],[8.4408,49.5889],[8.4485,49.59],[8.4648,49.5891],[8.4754,49.5846],[8.4941,49.5726],[8.5263,49.548],[8.5317,49.5366],[8.5408,49.5286],[8.5606,49.5184],[8.5665,49.5186],[8.5814,49.5196],[8.5848,49.5186],[8.5882,49.5013],[8.5711,49.4951],[8.5579,49.4904],[8.5516,49.4832],[8.5498,49.481],[8.5484,49.479],[8.5476,49.4775],[8.5472,49.4767],[8.5697,49.4632],[8.5827,49.4593],[8.5847,49.4614],[8.591,49.4588],[8.5876,49.4342],[8.5817,49.4264],[8.5746,49.4157],[8.561,49.4186],[8.5435,49.4185],[8.5442,49.4143],[8.5317,49.4111],[8.5041,49.4106],[8.4979,49.4108],[8.5071,49.4293],[8.5083,49.4322],[8.5085,49.434],[8.5083,49.4346],[8.5069,49.4376],[8.5057,49.4388],[8.505,49.4394],[8.5015,49.4411],[8.4982,49.4421],[8.4939,49.4428],[8.489,49.4432],[8.4853,49.4431],[8.4832,49.443],[8.4742,49.4428],[8.4603,49.4425],[8.4571,49.4427],[8.4542,49.443],[8.4519,49.4437],[8.4491,49.4449],[8.4462,49.4463],[8.4454,49.4469],[8.4447,49.4475],[8.4434,49.4491],[8.4424,49.4506],[8.4422,49.4524],[8.4426,49.4544],[8.4433,49.4563],[8.445,49.4583],[8.4476,49.4599],[8.4498,49.4607],[8.4527,49.4615],[8.4583,49.463],[8.4596,49.4634],[8.461,49.4639],[8.463,49.4652],[8.464,49.4666],[8.4645,49.4681],[8.4645,49.4701],[8.4632,49.4727],[8.4612,49.4754],[8.4591,49.4779],[8.4325,49.5204],[8.4228,49.5418],[8.4186,49.547],[8.4178,49.5481],[8.4167,49.5497],[8.4158,49.5514],[8.4148,49.5546]]]},"properties":{"warnId":"mow.DE-BW-MA-W044-20260930-013","strokeColor":"#C4C4C4","strokeOpacity":1,"strokeWeight":1,"fillColor":"#C4C4C4","fillOpacity":0.5,"zIndex":0},"id":"0"}]}