{"type":"FeatureCollection","features":[{"type":"Feature","geometry":{"type":"Polygon","coordinates":[[[9.2608,52.2796],[9.3356,52.3421],[9.37,52.3698],[9.3947,52.3731],[9.4228,52.3601],[9.4105,52.3375],[9.4104,52.3375],[9.41,52.3377],[9.4091,52.337],[9.4035,52.335],[9.4034,52.335],[9.4004,52.3342],[9.3985,52.3334],[9.3985,52.3333],[9.3974,52.3329],[9.3926,52.2935],[9.44,52.2725],[9.3965,52.2496],[9.3935,52.2495],[9.3914,52.2473],[9.3873,52.2469],[9.3888,52.2462],[9.3895,52.2459],[9.3576,52.2292],[9.2608,52.2796]]]},"properties":{"warnId":"mow.DE-NI-STD-SE029-20261005-29-000","strokeColor":"#C4C4C4","strokeOpacity":1,"strokeWeight":1,"fillColor":"#C4C4C4","fillOpacity":0.5,"zIndex":0},"id":"0"}]}