{"type":"FeatureCollection","features":[{"type":"Feature","geometry":{"type":"Polygon","coordinates":[[[11.0356,51.4992],[11.0357,51.5001],[11.0359,51.5011],[11.0362,51.502],[11.0367,51.5029],[11.0373,51.5038],[11.0381,51.5046],[11.039,51.5054],[11.04,51.5061],[11.0411,51.5067],[11.0423,51.5073],[11.0436,51.5078],[11.0449,51.5082],[11.0463,51.5086],[11.0478,51.5088],[11.0493,51.509],[11.0508,51.5091],[11.0524,51.509],[11.0539,51.5089],[11.0554,51.5087],[11.0568,51.5084],[11.0582,51.508],[11.0595,51.5075],[11.0608,51.507],[11.0619,51.5064],[11.063,51.5057],[11.0639,51.5049],[11.0647,51.5041],[11.0654,51.5033],[11.0659,51.5024],[11.0663,51.5015],[11.0666,51.5005],[11.0667,51.4996],[11.0667,51.4986],[11.0665,51.4977],[11.0661,51.4967],[11.0656,51.4958],[11.065,51.495],[11.0643,51.4941],[11.0634,51.4934],[11.0624,51.4927],[11.0613,51.492],[11.0601,51.4914],[11.0588,51.4909],[11.0574,51.4905],[11.056,51.4901],[11.0545,51.4899],[11.053,51.4897],[11.0515,51.4897],[11.05,51.4897],[11.0485,51.4898],[11.047,51.49],[11.0455,51.4903],[11.0441,51.4907],[11.0428,51.4912],[11.0416,51.4917],[11.0404,51.4924],[11.0394,51.4931],[11.0384,51.4938],[11.0376,51.4946],[11.0369,51.4955],[11.0364,51.4964],[11.036,51.4973],[11.0357,51.4982],[11.0356,51.4992]]]},"properties":{"warnId":"mow.DE-ST-MSH-W058-20261005-000","strokeColor":"#FB8C00","strokeOpacity":1,"strokeWeight":1,"fillColor":"#FB8C00","fillOpacity":0.5,"zIndex":20},"id":"0"}]}