{"type":"FeatureCollection","features":[{"type":"Feature","geometry":{"type":"Polygon","coordinates":[[[9.0327,54.4741],[9.0327,54.475],[9.0328,54.476],[9.0331,54.4769],[9.0336,54.4778],[9.0342,54.4787],[9.035,54.4795],[9.0359,54.4803],[9.037,54.4811],[9.0381,54.4817],[9.0394,54.4823],[9.0408,54.4829],[9.0422,54.4833],[9.0437,54.4837],[9.0453,54.484],[9.0469,54.4842],[9.0485,54.4842],[9.0502,54.4842],[9.0518,54.4842],[9.0534,54.484],[9.055,54.4837],[9.0565,54.4833],[9.058,54.4829],[9.0593,54.4823],[9.0606,54.4817],[9.0617,54.4811],[9.0628,54.4803],[9.0637,54.4795],[9.0645,54.4787],[9.0651,54.4778],[9.0656,54.4769],[9.0659,54.4759],[9.066,54.475],[9.066,54.474],[9.0659,54.4731],[9.0656,54.4722],[9.0651,54.4712],[9.0644,54.4704],[9.0637,54.4695],[9.0628,54.4687],[9.0617,54.468],[9.0605,54.4673],[9.0593,54.4667],[9.0579,54.4662],[9.0565,54.4657],[9.055,54.4654],[9.0534,54.4651],[9.0518,54.4649],[9.0502,54.4648],[9.0485,54.4648],[9.0469,54.4649],[9.0453,54.4651],[9.0437,54.4654],[9.0422,54.4657],[9.0407,54.4662],[9.0394,54.4667],[9.0381,54.4673],[9.037,54.468],[9.0359,54.4687],[9.035,54.4695],[9.0342,54.4704],[9.0336,54.4713],[9.0331,54.4722],[9.0328,54.4731],[9.0327,54.4741]]]},"properties":{"warnId":"mow.DE-SH-FL-SE100-20261006-100-001","strokeColor":"#C4C4C4","strokeOpacity":1,"strokeWeight":1,"fillColor":"#C4C4C4","fillOpacity":0.5,"zIndex":0},"id":"0"}]}