{"type":"FeatureCollection","features":[{"type":"Feature","geometry":{"type":"Polygon","coordinates":[[[8.1695,48.9255],[8.1874,48.9454],[8.2033,48.947],[8.1998,48.944],[8.2106,48.942],[8.215,48.9433],[8.2157,48.9411],[8.2209,48.9429],[8.2221,48.9465],[8.2236,48.9423],[8.2295,48.9412],[8.2295,48.9385],[8.2395,48.937],[8.2305,48.9327],[8.2375,48.9253],[8.2375,48.922],[8.2288,48.9161],[8.2219,48.9205],[8.2095,48.9206],[8.2019,48.9265],[8.1833,48.9231],[8.1839,48.9181],[8.172,48.926],[8.1695,48.9255]]]},"properties":{"warnId":"mow.DE-BW-RA-W025-20261003-001","strokeColor":"#C4C4C4","strokeOpacity":1,"strokeWeight":1,"fillColor":"#C4C4C4","fillOpacity":0.5,"zIndex":0},"id":"0"}]}