{"type":"FeatureCollection","features":[{"type":"Feature","geometry":{"type":"Polygon","coordinates":[[[8.7654,50.0606],[8.7654,50.0617],[8.7658,50.0629],[8.7665,50.064],[8.7675,50.0649],[8.7688,50.0658],[8.7703,50.0664],[8.772,50.0669],[8.7737,50.0671],[8.7756,50.0671],[8.7774,50.0669],[8.7791,50.0664],[8.7806,50.0658],[8.7819,50.065],[8.7829,50.064],[8.7836,50.0629],[8.7837,50.0625],[8.7821,50.0628],[8.7812,50.0613],[8.7821,50.059],[8.7817,50.0581],[8.7789,50.058],[8.7788,50.0559],[8.7788,50.0558],[8.7774,50.0554],[8.7756,50.0552],[8.7738,50.0552],[8.772,50.0554],[8.7703,50.0559],[8.7688,50.0565],[8.7675,50.0573],[8.7665,50.0583],[8.7658,50.0594],[8.7654,50.0606]]]},"properties":{"warnId":"mow.DE-HE-OF-W106-20261007-001","strokeColor":"#C4C4C4","strokeOpacity":1,"strokeWeight":1,"fillColor":"#C4C4C4","fillOpacity":0.5,"zIndex":0},"id":"0"}]}