{"type":"FeatureCollection","features":[{"type":"Feature","geometry":{"type":"Polygon","coordinates":[[[8.5175,49.1914],[8.524,49.1892],[8.5272,49.1934],[8.5322,49.1924],[8.5388,49.2026],[8.5378,49.2088],[8.5438,49.2072],[8.5482,49.2147],[8.5744,49.2084],[8.5874,49.2052],[8.5865,49.2037],[8.5819,49.1965],[8.5691,49.2003],[8.5602,49.1866],[8.5656,49.1841],[8.5575,49.1713],[8.5343,49.1799],[8.5175,49.1914]]]},"properties":{"warnId":"mow.DE-BW-KA-W138-20260925-000","strokeColor":"#FB8C00","strokeOpacity":1,"strokeWeight":1,"fillColor":"#FB8C00","fillOpacity":0.5,"zIndex":20},"id":"0"}]}