{"type":"FeatureCollection","features":[{"type":"Feature","geometry":{"type":"Polygon","coordinates":[[[8.2801,48.7648],[8.288,48.7735],[8.3013,48.7694],[8.3177,48.7707],[8.3231,48.7783],[8.3345,48.78],[8.3462,48.776],[8.3801,48.7868],[8.3718,48.7776],[8.3819,48.7591],[8.4059,48.7582],[8.411,48.7497],[8.4217,48.7437],[8.4428,48.7525],[8.4447,48.7586],[8.4568,48.7602],[8.4652,48.7643],[8.4751,48.7624],[8.4846,48.7567],[8.4796,48.7402],[8.4736,48.7352],[8.4759,48.7244],[8.4716,48.7194],[8.4621,48.7193],[8.4583,48.7171],[8.4602,48.7064],[8.467,48.7004],[8.4588,48.6975],[8.4498,48.7],[8.4393,48.6951],[8.4475,48.6868],[8.4456,48.6658],[8.4475,48.662],[8.4438,48.658],[8.4379,48.6611],[8.4307,48.6602],[8.4199,48.6642],[8.4188,48.672],[8.4106,48.6827],[8.4118,48.6938],[8.4064,48.7034],[8.3999,48.7042],[8.3884,48.717],[8.3769,48.7228],[8.3787,48.7279],[8.3703,48.7311],[8.3686,48.7288],[8.3539,48.7309],[8.3486,48.7343],[8.341,48.7317],[8.3263,48.7203],[8.3205,48.7102],[8.3206,48.7304],[8.3151,48.7401],[8.3051,48.7426],[8.2918,48.7562],[8.2852,48.7561],[8.2801,48.7648]]]},"properties":{"warnId":"mow.DE-BW-RA-W025-20261004-001","strokeColor":"#C4C4C4","strokeOpacity":1,"strokeWeight":1,"fillColor":"#C4C4C4","fillOpacity":0.5,"zIndex":0},"id":"0"}]}