{"type":"FeatureCollection","features":[{"type":"Feature","geometry":{"type":"MultiPolygon","coordinates":[[[[12.0458,51.4155],[12.0458,51.4177],[12.0465,51.4196],[12.048,51.4214],[12.0501,51.4229],[12.0529,51.4241],[12.0564,51.4251],[12.0604,51.4258],[12.0651,51.4262],[12.0703,51.4264],[12.0759,51.4262],[12.082,51.4258],[12.0885,51.4251],[12.0952,51.4241],[12.1022,51.4229],[12.1094,51.4214],[12.1167,51.4197],[12.124,51.4177],[12.1313,51.4156],[12.1385,51.4133],[12.1455,51.4108],[12.1522,51.4082],[12.1586,51.4054],[12.1647,51.4026],[12.1704,51.3997],[12.1755,51.3968],[12.1759,51.3966],[12.1765,51.3944],[12.1776,51.3905],[12.1781,51.3891],[12.1842,51.3888],[12.1848,51.3876],[12.1796,51.3867],[12.1764,51.3859],[12.1721,51.3842],[12.1738,51.3826],[12.175,51.3833],[12.1774,51.3805],[12.1747,51.3794],[12.177,51.3774],[12.1777,51.3767],[12.1752,51.3759],[12.1777,51.3752],[12.1808,51.3755],[12.1827,51.3771],[12.1837,51.3783],[12.1874,51.3779],[12.1889,51.3794],[12.19,51.3795],[12.1901,51.3777],[12.1895,51.3755],[12.1881,51.376],[12.1858,51.3741],[12.1828,51.3745],[12.1827,51.3735],[12.1825,51.3732],[12.1826,51.3728],[12.1827,51.3722],[12.1826,51.3718],[12.183,51.3712],[12.1829,51.3696],[12.1818,51.3685],[12.1822,51.3682],[12.18,51.3678],[12.1753,51.3674],[12.1702,51.3672],[12.1645,51.3674],[12.1584,51.3678],[12.152,51.3685],[12.1452,51.3695],[12.1382,51.3707],[12.1311,51.3722],[12.1238,51.3739],[12.1165,51.3759],[12.1092,51.378],[12.1021,51.3804],[12.0951,51.3829],[12.0883,51.3855],[12.0819,51.3882],[12.0758,51.391],[12.0702,51.3939],[12.065,51.3968],[12.0604,51.3997],[12.0563,51.4025],[12.0529,51.4054],[12.0501,51.4081],[12.0479,51.4107],[12.0465,51.4132],[12.0458,51.4155]]],[[[12.1843,51.3686],[12.1854,51.3694],[12.1889,51.3709],[12.1898,51.3711],[12.1908,51.3713],[12.1911,51.3713],[12.1903,51.3707],[12.1875,51.3695],[12.1843,51.3686]]]]},"properties":{"warnId":"mow.DE-ST-SK-W070-20261001-002","strokeColor":"#FB8C00","strokeOpacity":1,"strokeWeight":1,"fillColor":"#FB8C00","fillOpacity":0.5,"zIndex":20},"id":"0"}]}