{"type":"FeatureCollection","features":[{"type":"Feature","geometry":{"type":"Polygon","coordinates":[[[10.5746,53.7363],[10.5747,53.7372],[10.575,53.7381],[10.5756,53.7389],[10.5765,53.7396],[10.5776,53.7402],[10.5788,53.7407],[10.5802,53.741],[10.5817,53.7412],[10.5832,53.7412],[10.5847,53.741],[10.586,53.7406],[10.5873,53.7401],[10.5883,53.7395],[10.5891,53.7387],[10.5897,53.7379],[10.5899,53.737],[10.5899,53.7361],[10.5896,53.7352],[10.589,53.7344],[10.5881,53.7337],[10.587,53.7331],[10.5857,53.7326],[10.5843,53.7323],[10.5829,53.7321],[10.5814,53.7321],[10.5799,53.7323],[10.5785,53.7327],[10.5773,53.7332],[10.5763,53.7339],[10.5755,53.7346],[10.5749,53.7354],[10.5746,53.7363]]]},"properties":{"warnId":"mow.DE-SH-OD-SE105-20261006-105-001","strokeColor":"#C4C4C4","strokeOpacity":1,"strokeWeight":1,"fillColor":"#C4C4C4","fillOpacity":0.5,"zIndex":0},"id":"0"}]}