{"type":"FeatureCollection","features":[{"type":"Feature","geometry":{"type":"Polygon","coordinates":[[[8.4186,49.6397],[8.4198,49.6417],[8.4226,49.641],[8.43,49.6512],[8.4277,49.6527],[8.4364,49.6538],[8.4327,49.6572],[8.4386,49.6569],[8.4378,49.6749],[8.4589,49.6732],[8.4584,49.6715],[8.4794,49.6645],[8.4931,49.6599],[8.4934,49.6639],[8.5039,49.6608],[8.5068,49.6676],[8.5207,49.667],[8.5211,49.6616],[8.5163,49.6612],[8.5182,49.6563],[8.5082,49.6554],[8.5141,49.6416],[8.5223,49.6222],[8.5178,49.6231],[8.5019,49.6172],[8.4628,49.6134],[8.4362,49.6264],[8.428,49.6281],[8.4186,49.6397]]]},"properties":{"warnId":"mow.DE-HE-HP-W196-20260930-001","strokeColor":"#C4C4C4","strokeOpacity":1,"strokeWeight":1,"fillColor":"#C4C4C4","fillOpacity":0.5,"zIndex":0},"id":"0"},{"type":"Feature","geometry":{"type":"Polygon","coordinates":[[[8.3662,49.6628],[8.3796,49.6665],[8.3837,49.6606],[8.384,49.6661],[8.3889,49.6626],[8.39,49.665],[8.4228,49.6786],[8.4378,49.6749],[8.4386,49.6569],[8.4327,49.6572],[8.4364,49.6538],[8.4277,49.6527],[8.43,49.6512],[8.4226,49.641],[8.4198,49.6417],[8.4186,49.6397],[8.428,49.6281],[8.4362,49.6264],[8.4628,49.6134],[8.5019,49.6172],[8.5178,49.6231],[8.5223,49.6222],[8.5312,49.621],[8.5418,49.6227],[8.5735,49.6337],[8.5716,49.6269],[8.5646,49.6211],[8.565,49.6146],[8.5684,49.6146],[8.5685,49.6164],[8.5781,49.6161],[8.5853,49.6015],[8.5856,49.6038],[8.5893,49.6045],[8.5941,49.5928],[8.5549,49.5859],[8.5136,49.5869],[8.495,49.573],[8.4799,49.5745],[8.4799,49.5786],[8.4744,49.581],[8.4754,49.5846],[8.4643,49.5895],[8.446,49.5904],[8.4405,49.5894],[8.4383,49.5839],[8.4224,49.5834],[8.4148,49.5951],[8.4078,49.6063],[8.3929,49.6153],[8.3834,49.6252],[8.3662,49.6628]]]},"properties":{"warnId":"mow.DE-HE-HP-W196-20260930-001","strokeColor":"#C4C4C4","strokeOpacity":1,"strokeWeight":1,"fillColor":"#C4C4C4","fillOpacity":0.5,"zIndex":0},"id":"1"}]}