{"type":"FeatureCollection","features":[{"type":"Feature","geometry":{"type":"Polygon","coordinates":[[[13.6044,51.0814],[13.6045,51.0823],[13.6048,51.0831],[13.6055,51.0839],[13.6063,51.0846],[13.6074,51.0852],[13.6086,51.0857],[13.6099,51.086],[13.6113,51.0861],[13.6127,51.086],[13.6141,51.0858],[13.6154,51.0854],[13.6165,51.0849],[13.6174,51.0842],[13.6181,51.0834],[13.6186,51.0826],[13.6188,51.0817],[13.6187,51.0808],[13.6183,51.08],[13.6177,51.0792],[13.6168,51.0785],[13.6158,51.0779],[13.6146,51.0774],[13.6132,51.0771],[13.6118,51.077],[13.6104,51.0771],[13.6091,51.0773],[13.6078,51.0777],[13.6067,51.0782],[13.6057,51.0789],[13.605,51.0797],[13.6046,51.0805],[13.6044,51.0814]]]},"properties":{"warnId":"mow.DE-SN-DD-W094-20261010-000","strokeColor":"#FB8C00","strokeOpacity":1,"strokeWeight":1,"fillColor":"#FB8C00","fillOpacity":0.5,"zIndex":20},"id":"0"}]}