{"type":"FeatureCollection","features":[{"type":"Feature","geometry":{"type":"Polygon","coordinates":[[[11.825,52.6047],[11.8251,52.6062],[11.8257,52.6076],[11.8268,52.609],[11.8282,52.6102],[11.8301,52.6113],[11.8322,52.6121],[11.8345,52.6126],[11.837,52.6128],[11.8395,52.6128],[11.8419,52.6124],[11.8441,52.6118],[11.8461,52.6109],[11.8478,52.6098],[11.8491,52.6085],[11.85,52.6071],[11.8504,52.6056],[11.8503,52.604],[11.8497,52.6026],[11.8487,52.6012],[11.8472,52.6],[11.8454,52.5989],[11.8433,52.5982],[11.8409,52.5976],[11.8385,52.5974],[11.836,52.5975],[11.8336,52.5978],[11.8313,52.5984],[11.8293,52.5993],[11.8276,52.6004],[11.8263,52.6017],[11.8254,52.6032],[11.825,52.6047]]]},"properties":{"warnId":"mow.DE-ST-SDL-W029-20261009-000","strokeColor":"#B01917","strokeOpacity":1,"strokeWeight":1,"fillColor":"#B01917","fillOpacity":0.5,"zIndex":40},"id":"0"}]}