{"type":"FeatureCollection","features":[{"type":"Feature","geometry":{"type":"Polygon","coordinates":[[[10.7437,48.7181],[10.7438,48.7199],[10.7444,48.7216],[10.7455,48.7233],[10.747,48.7247],[10.7489,48.7259],[10.7512,48.7269],[10.7537,48.7275],[10.7563,48.7278],[10.759,48.7278],[10.7616,48.7274],[10.764,48.7267],[10.7662,48.7257],[10.7681,48.7244],[10.7695,48.7229],[10.7705,48.7212],[10.7709,48.7195],[10.7709,48.7177],[10.7703,48.716],[10.7692,48.7144],[10.7677,48.7129],[10.7657,48.7117],[10.7635,48.7108],[10.761,48.7101],[10.7584,48.7098],[10.7557,48.7099],[10.7531,48.7103],[10.7506,48.711],[10.7484,48.712],[10.7466,48.7133],[10.7452,48.7148],[10.7442,48.7164],[10.7437,48.7181]]]},"properties":{"warnId":"mow.DE-BY-R-SE084-20261008-84-003","strokeColor":"#C4C4C4","strokeOpacity":1,"strokeWeight":1,"fillColor":"#C4C4C4","fillOpacity":0.5,"zIndex":0},"id":"0"}]}