{"type":"FeatureCollection","features":[{"type":"Feature","geometry":{"type":"Polygon","coordinates":[[[6.705,51.2671],[6.7236,51.2942],[6.7262,51.2967],[6.7275,51.2982],[6.7284,51.2995],[6.7291,51.3004],[6.7311,51.3033],[6.7323,51.3054],[6.7339,51.309],[6.7344,51.3109],[6.7346,51.3129],[6.7341,51.3164],[6.7339,51.3173],[6.7329,51.3197],[6.7318,51.3216],[6.7315,51.3221],[6.7308,51.3229],[6.7278,51.3257],[6.7253,51.3275],[6.7215,51.3296],[6.7145,51.3329],[6.718,51.3361],[6.7242,51.3406],[6.739,51.349],[6.7523,51.3505],[6.7953,51.3539],[6.8063,51.3524],[6.8049,51.3479],[6.8035,51.3377],[6.8027,51.3288],[6.8006,51.2894],[6.8011,51.2827],[6.8023,51.2752],[6.8057,51.2753],[6.8118,51.2765],[6.8184,51.2778],[6.8292,51.2794],[6.853,51.2761],[6.8661,51.2723],[6.8764,51.2684],[6.8951,51.2652],[6.9027,51.2647],[6.9076,51.2711],[6.9142,51.2764],[6.9362,51.2761],[6.94,51.2731],[6.9324,51.2383],[6.9292,51.238],[6.9065,51.2398],[6.8824,51.2416],[6.8776,51.2421],[6.8716,51.2416],[6.8743,51.2188],[6.8797,51.2145],[6.9118,51.2114],[6.9245,51.19],[6.9134,51.1769],[6.9041,51.1759],[6.8988,51.1722],[6.8991,51.1584],[6.9139,51.1451],[6.9182,51.1416],[6.9233,51.1424],[6.9257,51.1375],[6.9181,51.1292],[6.8991,51.1246],[6.8857,51.1278],[6.8706,51.13],[6.8619,51.129],[6.8552,51.126],[6.852,51.1293],[6.8502,51.1313],[6.8489,51.1337],[6.8481,51.137],[6.8487,51.1409],[6.8503,51.144],[6.8523,51.1466],[6.8558,51.1508],[6.8569,51.1532],[6.857,51.1553],[6.8566,51.1566],[6.8555,51.1581],[6.8543,51.1592],[6.8516,51.1606],[6.8482,51.1613],[6.8427,51.1614],[6.8391,51.1607],[6.8356,51.1593],[6.8331,51.1579],[6.83,51.1555],[6.8231,51.1484],[6.8196,51.1457],[6.8158,51.144],[6.8111,51.1431],[6.8059,51.143],[6.8015,51.1437],[6.7988,51.1448],[6.796,51.1466],[6.7938,51.1496],[6.7931,51.1544],[6.7942,51.1586],[6.7964,51.1631],[6.7978,51.1672],[6.7979,51.1716],[6.7974,51.1746],[6.796,51.1774],[6.7939,51.1794],[6.793,51.1803],[6.7889,51.1824],[6.7851,51.1837],[6.7808,51.1844],[6.7774,51.1843],[6.7733,51.1838],[6.7661,51.182],[6.7614,51.1811],[6.7582,51.1808],[6.7512,51.1804],[6.7455,51.181],[6.7397,51.1824],[6.7354,51.1846],[6.7343,51.1851],[6.7334,51.1856],[6.7325,51.1867],[6.7315,51.1883],[6.7307,51.1899],[6.7305,51.1924],[6.7308,51.194],[6.7322,51.1973],[6.7325,51.1982],[6.7326,51.2],[6.7327,51.2013],[6.7326,51.2026],[6.7316,51.206],[6.705,51.2671]]]},"properties":{"warnId":"mow.DE-NW-D-SE047-20261001-47-001","strokeColor":"#C4C4C4","strokeOpacity":1,"strokeWeight":1,"fillColor":"#C4C4C4","fillOpacity":0.5,"zIndex":0},"id":"0"}]}