{"type":"FeatureCollection","features":[{"type":"Feature","geometry":{"type":"Polygon","coordinates":[[[7.9218,50.9377],[7.9344,50.9359],[7.9493,50.9422],[7.9531,50.938],[7.96,50.9405],[7.9608,50.939],[7.9686,50.9399],[7.9672,50.945],[7.9752,50.9458],[7.9782,50.9434],[7.9796,50.9453],[7.9929,50.9432],[8.0005,50.9328],[8.0083,50.9283],[8.012,50.9288],[8.0136,50.9251],[8.0187,50.9256],[8.0221,50.9277],[8.0235,50.937],[8.0186,50.9433],[8.0196,50.9484],[8.0279,50.9513],[8.0423,50.9498],[8.0474,50.9406],[8.0583,50.9329],[8.0453,50.9186],[8.0319,50.9182],[8.0419,50.9088],[8.0471,50.9072],[8.0569,50.8979],[8.0631,50.8993],[8.0738,50.8964],[8.0842,50.8989],[8.0953,50.8985],[8.0989,50.9008],[8.1072,50.8977],[8.1127,50.8892],[8.1279,50.8774],[8.1238,50.8725],[8.1046,50.8705],[8.1012,50.8722],[8.0922,50.8685],[8.0917,50.866],[8.0822,50.8669],[8.0827,50.8622],[8.0609,50.86],[8.0547,50.8541],[8.0518,50.8575],[8.0518,50.852],[8.0451,50.8483],[8.0531,50.8433],[8.0492,50.8411],[8.0525,50.8352],[8.0497,50.8311],[8.0534,50.8298],[8.0499,50.8239],[8.0515,50.8167],[8.0471,50.8156],[8.0222,50.8201],[7.9928,50.8119],[7.9732,50.8144],[7.972,50.8147],[7.9766,50.8249],[7.9741,50.8286],[7.9783,50.8333],[7.9681,50.836],[7.9682,50.8417],[7.9639,50.846],[7.9577,50.8489],[7.9493,50.8458],[7.9383,50.8484],[7.9257,50.8448],[7.9393,50.8569],[7.9316,50.8658],[7.9358,50.8682],[7.9342,50.8745],[7.94,50.8814],[7.938,50.8847],[7.9464,50.8899],[7.9431,50.8917],[7.9453,50.8927],[7.9497,50.8896],[7.9543,50.8909],[7.952,50.8926],[7.9561,50.8964],[7.956,50.9053],[7.9609,50.9074],[7.9566,50.9084],[7.9584,50.9139],[7.9505,50.923],[7.944,50.924],[7.9396,50.9264],[7.9416,50.9285],[7.9385,50.9307],[7.9247,50.9355],[7.9218,50.9377]]]},"properties":{"warnId":"mow.DE-NW-SI-SE066-20261006-66-000","strokeColor":"#C4C4C4","strokeOpacity":1,"strokeWeight":1,"fillColor":"#C4C4C4","fillOpacity":0.5,"zIndex":0},"id":"0"}]}