{"type":"FeatureCollection","features":[{"type":"Feature","geometry":{"type":"Polygon","coordinates":[[[7.9689,50.4098],[7.9889,50.4399],[8.0012,50.463],[8.0001,50.4634],[7.9994,50.4638],[7.9943,50.4676],[7.9875,50.473],[7.9782,50.4857],[7.983,50.5106],[7.9921,50.5221],[8.0286,50.5509],[8.0421,50.5529],[8.0483,50.5532],[8.0658,50.5485],[8.0701,50.5387],[8.1038,50.5334],[8.1183,50.5355],[8.1214,50.5394],[8.1398,50.5713],[8.1518,50.5932],[8.1516,50.5994],[8.1592,50.5822],[8.1649,50.576],[8.1993,50.5647],[8.2061,50.5642],[8.2139,50.577],[8.2199,50.5817],[8.2274,50.5856],[8.2311,50.5857],[8.256,50.5751],[8.2612,50.5684],[8.2839,50.539],[8.2986,50.5275],[8.3127,50.517],[8.3294,50.5133],[8.3462,50.5109],[8.3582,50.5083],[8.3652,50.4924],[8.3719,50.4758],[8.387,50.462],[8.3878,50.4613],[8.3932,50.4567],[8.4053,50.458],[8.4237,50.4465],[8.4322,50.4349],[8.4408,50.4287],[8.4662,50.4213],[8.466,50.4159],[8.4026,50.4],[8.39,50.395],[8.3521,50.3747],[8.3298,50.3448],[8.3315,50.3302],[8.3404,50.3285],[8.3635,50.3152],[8.3644,50.3127],[8.3623,50.3089],[8.3561,50.3066],[8.3414,50.3069],[8.3389,50.3055],[8.3377,50.3032],[8.342,50.2991],[8.3495,50.2952],[8.3545,50.2933],[8.3241,50.2826],[8.3011,50.2763],[8.2561,50.264],[8.2469,50.2636],[8.2314,50.2751],[8.2307,50.2757],[8.2235,50.2839],[8.2204,50.2909],[8.2179,50.2911],[8.2161,50.2909],[8.1988,50.2887],[8.1906,50.2859],[8.1819,50.2815],[8.1691,50.2761],[8.1446,50.28],[8.1216,50.2775],[8.1197,50.2932],[8.1166,50.3028],[8.1074,50.3228],[8.1027,50.3269],[8.083,50.3306],[8.082,50.3308],[8.0761,50.3482],[8.0658,50.3661],[8.0582,50.3734],[8.0233,50.4],[7.9838,50.4069],[7.9705,50.4062],[7.9689,50.4098]]]},"properties":{"warnId":"mow.DE-HE-LM-W189-20261001-000","strokeColor":"#C4C4C4","strokeOpacity":1,"strokeWeight":1,"fillColor":"#C4C4C4","fillOpacity":0.5,"zIndex":0},"id":"0"}]}