{"type":"FeatureCollection","features":[{"type":"Feature","geometry":{"type":"Polygon","coordinates":[[[13.1064,53.5256],[13.1068,53.5296],[13.1078,53.5336],[13.1095,53.5374],[13.1118,53.5412],[13.1148,53.5448],[13.1183,53.5482],[13.1224,53.5514],[13.1269,53.5544],[13.1319,53.5571],[13.1374,53.5594],[13.1432,53.5615],[13.1493,53.5631],[13.1557,53.5644],[13.1623,53.5654],[13.1689,53.5659],[13.1757,53.5661],[13.1824,53.5659],[13.1891,53.5652],[13.1956,53.5642],[13.2019,53.5628],[13.208,53.5611],[13.2137,53.559],[13.2191,53.5566],[13.224,53.5538],[13.2285,53.5508],[13.2325,53.5476],[13.2359,53.5441],[13.2387,53.5405],[13.2409,53.5367],[13.2425,53.5328],[13.2434,53.5288],[13.2436,53.5248],[13.2432,53.5208],[13.2422,53.5168],[13.2405,53.5129],[13.2381,53.5092],[13.2352,53.5056],[13.2317,53.5022],[13.2276,53.499],[13.223,53.496],[13.218,53.4933],[13.2126,53.491],[13.2068,53.489],[13.2006,53.4873],[13.1943,53.486],[13.1878,53.485],[13.1811,53.4845],[13.1744,53.4843],[13.1676,53.4846],[13.161,53.4852],[13.1545,53.4862],[13.1482,53.4876],[13.1421,53.4893],[13.1364,53.4914],[13.131,53.4938],[13.1261,53.4966],[13.1216,53.4996],[13.1176,53.5028],[13.1142,53.5063],[13.1114,53.5099],[13.1092,53.5137],[13.1076,53.5176],[13.1067,53.5216],[13.1064,53.5256]]]},"properties":{"warnId":"mow.DE-MV-SN-SE024-20261003-24-000","strokeColor":"#FB8C00","strokeOpacity":1,"strokeWeight":1,"fillColor":"#FB8C00","fillOpacity":0.5,"zIndex":20},"id":"0"}]}