{"type":"FeatureCollection","features":[{"type":"Feature","geometry":{"type":"MultiPolygon","coordinates":[[[[8.6767,54.0555],[8.6768,54.0579],[8.6773,54.0597],[8.6797,54.064],[8.682,54.0664],[8.6844,54.068],[8.6893,54.0707],[8.6937,54.0718],[8.6994,54.0719],[8.702,54.0693],[8.6876,54.0594],[8.6926,54.0462],[8.6885,54.0469],[8.685,54.0475],[8.6805,54.0495],[8.6787,54.0509],[8.6776,54.0523],[8.6767,54.0555]]],[[[8.8051,54.1759],[8.8056,54.1781],[8.8124,54.1961],[8.8134,54.1982],[8.8206,54.2077],[8.8229,54.2103],[8.8258,54.2125],[8.8271,54.2132],[8.8318,54.2148],[8.8324,54.2151],[8.8328,54.2156],[8.8383,54.2306],[8.8385,54.2319],[8.8429,54.2669],[8.8657,54.2639],[8.8892,54.2624],[8.8941,54.2625],[8.8981,54.2634],[8.8999,54.2643],[8.9008,54.2659],[8.9012,54.2679],[8.9006,54.2705],[8.8996,54.2753],[8.8989,54.2792],[8.8992,54.2809],[8.9002,54.283],[8.9029,54.2853],[8.9056,54.287],[8.9446,54.3097],[8.9502,54.3128],[8.9547,54.3143],[8.965,54.3159],[8.9685,54.3168],[8.9706,54.3176],[8.9726,54.3185],[8.9758,54.3205],[8.9931,54.3336],[8.9941,54.3346],[8.9946,54.3356],[8.9947,54.3364],[8.9941,54.3388],[8.9933,54.34],[8.9922,54.341],[8.9896,54.3428],[8.9874,54.3439],[8.9861,54.3448],[8.9846,54.346],[8.9836,54.3472],[8.983,54.3483],[8.9823,54.3495],[8.9819,54.3507],[8.9813,54.3536],[8.9814,54.3557],[8.9818,54.3581],[8.9826,54.3601],[8.9836,54.3617],[8.9872,54.3657],[8.9906,54.3684],[8.9951,54.371],[9.0071,54.3771],[9.0106,54.3782],[9.0111,54.3783],[9.0135,54.3784],[9.0171,54.3784],[9.0226,54.3777],[9.0254,54.3768],[9.0276,54.3752],[9.0518,54.3664],[9.0719,54.3625],[9.0864,54.3693],[9.0886,54.3701],[9.0904,54.3699],[9.0922,54.3693],[9.0953,54.3679],[9.0984,54.3665],[9.1021,54.3648],[9.1354,54.3482],[9.136,54.3475],[9.1408,54.3375],[9.1622,54.3266],[9.1757,54.3345],[9.1967,54.3283],[9.2223,54.3226],[9.2232,54.3224],[9.2244,54.3226],[9.2254,54.323],[9.226,54.3234],[9.2267,54.3242],[9.2273,54.3254],[9.23,54.3374],[9.2299,54.3383],[9.2298,54.3392],[9.229,54.3402],[9.2277,54.3409],[9.2252,54.3418],[9.2205,54.3432],[9.2196,54.3438],[9.2195,54.3445],[9.2196,54.3456],[9.2205,54.3463],[9.2218,54.3466],[9.2254,54.3469],[9.2285,54.3469],[9.2303,54.3468],[9.2321,54.3465],[9.2489,54.3404],[9.2614,54.3355],[9.2754,54.3261],[9.2759,54.3255],[9.2764,54.3244],[9.2763,54.323],[9.2737,54.3096],[9.2735,54.3091],[9.273,54.3086],[9.2725,54.3084],[9.2708,54.3083],[9.2652,54.3089],[9.2636,54.309],[9.2622,54.3089],[9.2608,54.3086],[9.26,54.3081],[9.2595,54.3073],[9.2598,54.306],[9.2681,54.2954],[9.2867,54.2763],[9.2878,54.2752],[9.2881,54.275],[9.2885,54.2749],[9.3031,54.2721],[9.304,54.2719],[9.3051,54.2718],[9.3067,54.272],[9.308,54.2726],[9.3143,54.2767],[9.3268,54.2824],[9.3287,54.283],[9.3307,54.2834],[9.3785,54.289],[9.3936,54.2884],[9.4022,54.2778],[9.4211,54.2644],[9.4343,54.2386],[9.4435,54.1728],[9.4279,54.166],[9.4094,54.1591],[9.4041,54.1593],[9.4031,54.1614],[9.3892,54.158],[9.3748,54.1538],[9.3733,54.1533],[9.3714,54.1527],[9.3621,54.1496],[9.333,54.139],[9.3306,54.138],[9.3121,54.1289],[9.3051,54.1241],[9.3134,54.1079],[9.317,54.0923],[9.3138,54.0691],[9.3119,54.0649],[9.3053,54.047],[9.301,54.031],[9.3044,54.0203],[9.3043,54.0163],[9.3042,54.0126],[9.2976,53.9927],[9.2963,53.9895],[9.296,53.989],[9.288,53.9795],[9.2831,53.9782],[9.2787,53.9788],[9.2726,53.978],[9.2086,53.93],[9.198,53.8917],[9.1991,53.8802],[9.169,53.8796],[9.0819,53.8805],[9.0577,53.8812],[9.0493,53.8813],[9.0385,53.8807],[9.0225,53.8793],[9.0185,53.8961],[8.997,53.8931],[8.9834,53.891],[8.9827,53.8909],[8.9805,53.8907],[8.9793,53.8907],[8.978,53.891],[8.9656,53.894],[8.9552,53.8989],[8.9231,53.9201],[8.9155,53.9257],[8.9062,53.9345],[8.8942,53.9498],[8.8906,53.9548],[8.8775,53.9726],[8.8771,53.9771],[8.8555,54],[8.8552,54.0004],[8.8324,54.0235],[8.8205,54.0238],[8.8167,54.0253],[8.8423,54.0378],[8.8456,54.0391],[8.8499,54.0404],[8.8641,54.0436],[8.8788,54.0458],[8.9211,54.0412],[8.9295,54.0378],[8.931,54.037],[8.9366,54.0337],[8.9481,54.0335],[8.9544,54.0345],[8.9578,54.0352],[8.9632,54.0364],[8.9685,54.0376],[8.9692,54.0378],[8.9702,54.0382],[8.9719,54.0389],[8.9739,54.0402],[8.9759,54.0416],[8.9775,54.0432],[8.9793,54.0458],[8.9803,54.0475],[8.9821,54.0509],[8.9829,54.0525],[8.9843,54.0554],[8.9846,54.0567],[8.9846,54.0569],[8.9846,54.0584],[8.9846,54.06],[8.9838,54.0627],[8.9777,54.0693],[8.9457,54.0965],[8.9277,54.1292],[8.9268,54.1302],[8.9256,54.1309],[8.9253,54.1312],[8.9244,54.1316],[8.9237,54.1319],[8.9225,54.1322],[8.921,54.1325],[8.9097,54.1337],[8.9082,54.1337],[8.8963,54.1323],[8.8939,54.132],[8.8913,54.1313],[8.8807,54.1271],[8.869,54.1264],[8.8536,54.127],[8.8406,54.1323],[8.8311,54.138],[8.828,54.14],[8.8258,54.1423],[8.8071,54.1707],[8.8061,54.1724],[8.8054,54.1738],[8.8051,54.1759]]]]},"properties":{"warnId":"mow.DE-SH-EH-SE028-20261001-28-001","strokeColor":"#C4C4C4","strokeOpacity":1,"strokeWeight":1,"fillColor":"#C4C4C4","fillOpacity":0.5,"zIndex":0},"id":"0"},{"type":"Feature","geometry":{"type":"Polygon","coordinates":[[[9.198,53.8917],[9.2086,53.93],[9.2726,53.978],[9.2787,53.9788],[9.2831,53.9782],[9.288,53.9795],[9.296,53.989],[9.2963,53.9895],[9.2976,53.9927],[9.3042,54.0126],[9.3043,54.0163],[9.3044,54.0203],[9.301,54.031],[9.3053,54.047],[9.3119,54.0649],[9.3215,54.0664],[9.3598,54.0675],[9.3604,54.0674],[9.3787,54.0638],[9.4195,54.0626],[9.4262,54.0641],[9.4388,54.0703],[9.4402,54.0756],[9.4534,54.0876],[9.4727,54.0915],[9.5256,54.098],[9.5314,54.0939],[9.5699,54.0926],[9.5731,54.0912],[9.5814,54.0874],[9.581,54.0816],[9.6043,54.0492],[9.6462,54.047],[9.7078,54.0452],[9.7444,54.0523],[9.7651,54.0534],[9.8047,54.0501],[9.814,54.0462],[9.8156,54.0453],[9.8566,54.0193],[9.8634,54.0121],[9.835,53.9975],[9.8266,53.9831],[9.8053,53.9812],[9.7916,53.9835],[9.7771,53.9794],[9.7768,53.974],[9.7894,53.9641],[9.8075,53.9616],[9.813,53.9447],[9.8071,53.9355],[9.8045,53.9354],[9.8,53.9358],[9.7949,53.9366],[9.7884,53.938],[9.7809,53.9379],[9.7573,53.9277],[9.7583,53.9188],[9.7619,53.9133],[9.7643,53.9037],[9.7525,53.8928],[9.671,53.8894],[9.6565,53.886],[9.6463,53.878],[9.6568,53.8565],[9.6636,53.8564],[9.6679,53.856],[9.6753,53.8531],[9.6759,53.8499],[9.6766,53.8453],[9.6645,53.812],[9.6598,53.8],[9.6512,53.7841],[9.6478,53.779],[9.6436,53.7727],[9.5676,53.7522],[9.5675,53.75],[9.5737,53.7395],[9.5836,53.7226],[9.5809,53.7214],[9.5784,53.7204],[9.5747,53.719],[9.5734,53.7187],[9.5714,53.7182],[9.5596,53.7158],[9.5564,53.7151],[9.5536,53.715],[9.5506,53.715],[9.5487,53.7151],[9.5472,53.716],[9.5457,53.7167],[9.5437,53.7173],[9.5418,53.7175],[9.5387,53.7176],[9.5369,53.7175],[9.5352,53.7175],[9.5328,53.7174],[9.5002,53.7101],[9.4874,53.7073],[9.4865,53.7071],[9.4493,53.7239],[9.4401,53.7283],[9.4319,53.7334],[9.4239,53.7402],[9.4232,53.741],[9.4132,53.7514],[9.3899,53.7811],[9.378,53.7964],[9.3755,53.7997],[9.375,53.8004],[9.3697,53.8073],[9.3659,53.8117],[9.3197,53.8505],[9.3018,53.8583],[9.2898,53.8636],[9.2724,53.8683],[9.2313,53.8775],[9.2079,53.88],[9.1991,53.8802],[9.198,53.8917]]]},"properties":{"warnId":"mow.DE-SH-EH-SE028-20261001-28-001","strokeColor":"#C4C4C4","strokeOpacity":1,"strokeWeight":1,"fillColor":"#C4C4C4","fillOpacity":0.5,"zIndex":0},"id":"1"}]}