{"type":"FeatureCollection","features":[{"type":"Feature","geometry":{"type":"Polygon","coordinates":[[[10.9696,52.2336],[10.9696,52.2367],[10.9699,52.2398],[10.9705,52.2427],[10.9715,52.2454],[10.9728,52.248],[10.9744,52.2503],[10.9764,52.2524],[10.9786,52.2542],[10.9811,52.2558],[10.9838,52.257],[10.9868,52.258],[10.9899,52.2586],[10.9932,52.259],[10.9967,52.259],[11.0002,52.2586],[11.0038,52.258],[11.0074,52.257],[11.011,52.2558],[11.0145,52.2542],[11.018,52.2524],[11.0213,52.2503],[11.0245,52.248],[11.0276,52.2454],[11.0304,52.2427],[11.033,52.2397],[11.0353,52.2367],[11.0374,52.2335],[11.0391,52.2303],[11.0405,52.227],[11.0416,52.2237],[11.0424,52.2204],[11.0428,52.2172],[11.0429,52.214],[11.0428,52.2133],[11.0375,52.2108],[11.0345,52.2103],[11.0329,52.2108],[11.0317,52.2104],[11.0294,52.2114],[11.0259,52.21],[11.0243,52.2094],[11.0248,52.2091],[11.025,52.209],[11.0254,52.2088],[11.0263,52.2084],[11.0267,52.2082],[11.0232,52.2066],[11.0234,52.2052],[11.023,52.2052],[11.0214,52.205],[11.0221,52.2025],[11.0246,52.2011],[11.0231,52.2003],[11.0225,52.2],[11.0177,52.1983],[11.0136,52.1996],[11.0137,52.1991],[11.0143,52.1964],[11.0146,52.195],[11.0141,52.1935],[11.0136,52.192],[11.0123,52.1921],[11.0087,52.1928],[11.0051,52.1937],[11.0015,52.195],[10.998,52.1965],[10.9945,52.1984],[10.9912,52.2005],[10.988,52.2028],[10.9849,52.2054],[10.9821,52.2081],[10.9795,52.211],[10.9772,52.2141],[10.9751,52.2172],[10.9734,52.2205],[10.9719,52.2237],[10.9708,52.227],[10.9701,52.2303],[10.9696,52.2336]]]},"properties":{"warnId":"mow.DE-NI-WOB-W088-20261001-000","strokeColor":"#FB8C00","strokeOpacity":1,"strokeWeight":1,"fillColor":"#FB8C00","fillOpacity":0.5,"zIndex":20},"id":"0"}]}