{"type":"FeatureCollection","features":[{"type":"Feature","geometry":{"type":"Polygon","coordinates":[[[7.7732,50.062],[7.7743,50.0673],[7.7816,50.0665],[7.8309,50.0814],[7.8357,50.083],[7.8402,50.0856],[7.8404,50.0872],[7.832,50.0944],[7.8327,50.0994],[7.8352,50.1058],[7.8371,50.1097],[7.8471,50.1248],[7.8489,50.126],[7.8542,50.1282],[7.8973,50.1215],[7.92,50.1088],[7.9275,50.1052],[7.9294,50.1422],[7.9224,50.1467],[7.8905,50.1628],[7.8847,50.168],[7.8843,50.181],[7.9076,50.2004],[7.9193,50.2075],[7.9583,50.2198],[7.9852,50.2272],[8.0036,50.2239],[8.0121,50.2177],[8.0232,50.2176],[8.0335,50.219],[8.0497,50.2273],[8.0575,50.232],[8.0585,50.2327],[8.0592,50.2335],[8.0598,50.2345],[8.0487,50.2404],[8.044,50.2424],[8.0251,50.2539],[8.0214,50.2574],[8.0251,50.261],[8.0357,50.2711],[8.0512,50.2739],[8.0717,50.2731],[8.0738,50.2719],[8.0736,50.2681],[8.0743,50.2671],[8.0795,50.2607],[8.1028,50.2596],[8.1052,50.2604],[8.1076,50.2613],[8.1116,50.2701],[8.1118,50.2706],[8.1216,50.2775],[8.1446,50.28],[8.1691,50.2761],[8.1819,50.2815],[8.1906,50.2859],[8.1988,50.2887],[8.2161,50.2909],[8.2179,50.2911],[8.2204,50.2909],[8.2235,50.2839],[8.2307,50.2757],[8.2314,50.2751],[8.2469,50.2636],[8.2561,50.264],[8.3011,50.2763],[8.3241,50.2826],[8.3545,50.2933],[8.3592,50.296],[8.3706,50.2955],[8.4068,50.269],[8.4083,50.2628],[8.4092,50.2591],[8.4077,50.2231],[8.3886,50.2183],[8.3742,50.2163],[8.36,50.2154],[8.3551,50.2091],[8.3529,50.2047],[8.3526,50.2038],[8.3526,50.203],[8.3533,50.2017],[8.3545,50.1958],[8.3583,50.1708],[8.3469,50.1608],[8.3303,50.1464],[8.3217,50.1512],[8.2774,50.152],[8.2749,50.1517],[8.264,50.1507],[8.2626,50.1505],[8.2434,50.1477],[8.2428,50.1434],[8.2357,50.1383],[8.2311,50.1366],[8.1839,50.1205],[8.1806,50.1256],[8.1614,50.1236],[8.1427,50.1131],[8.1174,50.0915],[8.1103,50.083],[8.1129,50.0729],[8.1211,50.0737],[8.1292,50.0719],[8.1334,50.0702],[8.1388,50.0669],[8.1584,50.0545],[8.1678,50.0466],[8.1739,50.0388],[8.1766,50.0345],[8.147,50.0268],[7.9796,49.9811],[7.9746,49.9794],[7.9733,49.979],[7.9701,49.9781],[7.9466,49.9746],[7.8882,49.9717],[7.8793,49.9727],[7.874,49.9743],[7.8695,49.9767],[7.8662,49.9799],[7.8641,49.9845],[7.8598,50.0017],[7.8591,50.0045],[7.8581,50.0069],[7.8565,50.0098],[7.854,50.0121],[7.8508,50.0141],[7.8221,50.0269],[7.7805,50.0507],[7.7773,50.0533],[7.7747,50.0562],[7.7735,50.0589],[7.7732,50.062]]]},"properties":{"warnId":"mow.DE-HE-SWA-W096-20260930-001","strokeColor":"#C4C4C4","strokeOpacity":1,"strokeWeight":1,"fillColor":"#C4C4C4","fillOpacity":0.5,"zIndex":0},"id":"0"}]}