{"type":"FeatureCollection","features":[{"type":"Feature","geometry":{"type":"Polygon","coordinates":[[[11.1051,50.9259],[11.1124,50.9312],[11.128,50.9291],[11.1451,50.9247],[11.1542,50.9248],[11.1538,50.9295],[11.1471,50.9392],[11.1418,50.9457],[11.1348,50.9489],[11.1322,50.9709],[11.1469,50.9761],[11.1477,50.9754],[11.1489,50.9747],[11.1648,50.9804],[11.1682,50.9824],[11.174,50.9894],[11.1731,51.018],[11.171,51.0183],[11.2142,51.0339],[11.2047,51.044],[11.1983,51.053],[11.1969,51.0558],[11.1922,51.0793],[11.193,51.0869],[11.1966,51.1043],[11.2038,51.1047],[11.2531,51.1027],[11.2837,51.1013],[11.3128,51.0994],[11.3242,51.0978],[11.3518,51.0987],[11.3795,51.1],[11.4044,51.1016],[11.4275,51.0939],[11.4276,51.0912],[11.4344,51.0894],[11.4804,51.0996],[11.4848,51.1049],[11.4858,51.1023],[11.5451,51.1027],[11.5513,51.1123],[11.5676,51.1179],[11.5735,51.118],[11.604,51.1131],[11.6444,51.1097],[11.6669,51.1116],[11.6928,51.0995],[11.6973,51.0924],[11.6985,51.0876],[11.6883,51.0765],[11.6752,51.0368],[11.6644,51.0299],[11.6507,51.0236],[11.6474,51.0234],[11.6264,51.0259],[11.6104,51.014],[11.6049,51.0055],[11.5768,51.0002],[11.5511,50.9928],[11.5467,50.9904],[11.5474,50.989],[11.5459,50.9867],[11.5243,50.9723],[11.5086,50.9678],[11.5033,50.9673],[11.499,50.954],[11.5047,50.9338],[11.5077,50.9253],[11.5102,50.9172],[11.5091,50.9148],[11.5047,50.9069],[11.4962,50.9039],[11.4915,50.9019],[11.4897,50.8996],[11.4917,50.8952],[11.4953,50.8952],[11.4938,50.8876],[11.4879,50.881],[11.448,50.8558],[11.4599,50.8408],[11.4607,50.8378],[11.4586,50.8327],[11.4544,50.8278],[11.4511,50.8279],[11.4434,50.832],[11.4359,50.8317],[11.4299,50.8299],[11.4251,50.8146],[11.424,50.8086],[11.4009,50.8025],[11.3872,50.8024],[11.3857,50.8031],[11.3857,50.8049],[11.3961,50.8079],[11.3894,50.8175],[11.3888,50.8183],[11.3611,50.8152],[11.363,50.807],[11.3631,50.8003],[11.3579,50.7978],[11.3438,50.7952],[11.3289,50.7946],[11.3237,50.7944],[11.3207,50.7949],[11.2782,50.819],[11.2717,50.8265],[11.2627,50.8343],[11.2499,50.8335],[11.23,50.8091],[11.2237,50.8036],[11.2175,50.8038],[11.2125,50.8046],[11.2069,50.8055],[11.2014,50.8072],[11.1656,50.8218],[11.1563,50.8288],[11.1554,50.8333],[11.156,50.8456],[11.1628,50.8473],[11.1683,50.8492],[11.1785,50.8533],[11.1767,50.8584],[11.1611,50.8679],[11.1338,50.8745],[11.1316,50.8754],[11.1247,50.8881],[11.1215,50.8996],[11.109,50.9146],[11.1056,50.9214],[11.1054,50.9231],[11.1051,50.9259]],[[11.2343,51.0188],[11.2457,51.0148],[11.2674,51.004],[11.2673,51.0016],[11.2671,50.9983],[11.2656,50.9916],[11.2658,50.9752],[11.2692,50.9663],[11.2773,50.9546],[11.2617,50.9424],[11.2599,50.9394],[11.276,50.9264],[11.291,50.9177],[11.2974,50.9166],[11.3184,50.9223],[11.3312,50.9259],[11.3671,50.9396],[11.3831,50.9474],[11.3983,50.9551],[11.4024,50.9649],[11.3938,50.9948],[11.3933,50.996],[11.3863,50.9939],[11.3734,50.9887],[11.366,50.9898],[11.3541,51.0001],[11.348,51.0078],[11.3586,51.0138],[11.3623,51.014],[11.3676,51.0149],[11.3715,51.0168],[11.3729,51.0186],[11.3728,51.0197],[11.2934,51.0303],[11.284,51.031],[11.2655,51.0311],[11.2464,51.0302],[11.2369,51.0218],[11.2343,51.0188]]]},"properties":{"warnId":"mow.DE-TH-AP-W115-20261010-000","strokeColor":"#FB8C00","strokeOpacity":1,"strokeWeight":1,"fillColor":"#FB8C00","fillOpacity":0.5,"zIndex":20},"id":"0"}]}