{"type":"FeatureCollection","features":[{"type":"Feature","geometry":{"type":"Polygon","coordinates":[[[12.1564,50.6444],[12.1565,50.6459],[12.1568,50.6474],[12.1574,50.6489],[12.1582,50.6503],[12.1592,50.6517],[12.1604,50.653],[12.1618,50.6542],[12.1634,50.6554],[12.1652,50.6564],[12.1671,50.6573],[12.1692,50.6581],[12.1714,50.6588],[12.1736,50.6593],[12.1759,50.6597],[12.1783,50.6599],[12.1807,50.66],[12.1831,50.6599],[12.1855,50.6597],[12.1878,50.6594],[12.1901,50.6589],[12.1923,50.6582],[12.1943,50.6574],[12.1963,50.6565],[12.198,50.6555],[12.1997,50.6544],[12.2011,50.6532],[12.2023,50.6519],[12.2034,50.6505],[12.2042,50.6491],[12.2048,50.6476],[12.2052,50.6461],[12.2053,50.6445],[12.2052,50.643],[12.2049,50.6415],[12.2044,50.6404],[12.2036,50.6405],[12.201,50.6409],[12.1982,50.6413],[12.1989,50.6394],[12.1995,50.6379],[12.2005,50.6352],[12.1998,50.6347],[12.1982,50.6335],[12.1965,50.6325],[12.1946,50.6316],[12.1925,50.6308],[12.1903,50.6301],[12.1881,50.6296],[12.1858,50.6292],[12.1834,50.629],[12.181,50.6289],[12.1786,50.629],[12.1762,50.6292],[12.1739,50.6295],[12.1716,50.63],[12.1695,50.6307],[12.1674,50.6315],[12.1654,50.6324],[12.1637,50.6334],[12.162,50.6345],[12.1606,50.6357],[12.1594,50.637],[12.1583,50.6384],[12.1575,50.6398],[12.1569,50.6413],[12.1565,50.6428],[12.1564,50.6444]]]},"properties":{"warnId":"mow.DE-TH-G-W109-20260926-000","strokeColor":"#FB8C00","strokeOpacity":1,"strokeWeight":1,"fillColor":"#FB8C00","fillOpacity":0.5,"zIndex":20},"id":"0"}]}