{"type":"FeatureCollection","features":[{"type":"Feature","geometry":{"type":"Polygon","coordinates":[[[9.155,52.0973],[9.1638,52.0981],[9.1775,52.118],[9.1909,52.1445],[9.1755,52.1583],[9.1688,52.1625],[9.1614,52.1728],[9.1608,52.1739],[9.1582,52.1799],[9.1613,52.189],[9.1643,52.1899],[9.1677,52.1898],[9.1712,52.1865],[9.1818,52.1845],[9.2013,52.1924],[9.2366,52.2081],[9.2618,52.2157],[9.2877,52.2213],[9.297,52.2209],[9.3116,52.2176],[9.3629,52.2194],[9.3686,52.221],[9.3766,52.2306],[9.3828,52.242],[9.3869,52.247],[9.3948,52.2497],[9.4086,52.2501],[9.4107,52.2499],[9.4127,52.2499],[9.4143,52.2502],[9.4349,52.2571],[9.4355,52.2575],[9.4388,52.26],[9.4446,52.2673],[9.4467,52.2704],[9.4491,52.2751],[9.4646,52.2557],[9.4741,52.2485],[9.4757,52.2474],[9.4778,52.2466],[9.4799,52.2462],[9.4878,52.2455],[9.49,52.2442],[9.4966,52.2376],[9.5074,52.222],[9.5072,52.2048],[9.5053,52.1887],[9.5018,52.184],[9.4986,52.1852],[9.4937,52.1782],[9.4936,52.1727],[9.498,52.1652],[9.5043,52.1615],[9.5214,52.1604],[9.525,52.1602],[9.5277,52.1604],[9.5299,52.1607],[9.5329,52.1616],[9.5454,52.166],[9.5513,52.1667],[9.5564,52.1669],[9.5637,52.1646],[9.574,52.1579],[9.603,52.1406],[9.6143,52.1349],[9.6291,52.1309],[9.6424,52.1206],[9.6836,52.1055],[9.6861,52.1019],[9.6784,52.0991],[9.6751,52.0976],[9.6676,52.0936],[9.6622,52.0892],[9.6556,52.0673],[9.6509,52.0501],[9.6516,52.0368],[9.6516,52.0203],[9.6469,52.0043],[9.634,51.9869],[9.6417,51.98],[9.6481,51.9725],[9.6492,51.967],[9.647,51.9643],[9.6263,51.9838],[9.6067,51.9956],[9.6014,52.0019],[9.577,52.0322],[9.5767,52.0374],[9.5741,52.04],[9.5673,52.0436],[9.5622,52.0439],[9.5394,52.0371],[9.5373,52.0257],[9.5109,52.0174],[9.4679,52.0006],[9.4666,52],[9.4573,51.9958],[9.4483,51.9894],[9.4463,51.9876],[9.4408,51.9824],[9.4394,51.982],[9.3635,51.9725],[9.3594,51.9763],[9.3569,51.9772],[9.348,51.9745],[9.3404,51.9665],[9.3413,51.9616],[9.3432,51.9601],[9.3506,51.9564],[9.3592,51.9552],[9.3637,51.9501],[9.3654,51.9433],[9.364,51.9419],[9.3611,51.94],[9.3526,51.9343],[9.345,51.9335],[9.335,51.9346],[9.309,51.9303],[9.3094,51.9222],[9.295,51.919],[9.286,51.9213],[9.2725,51.9329],[9.2629,51.9463],[9.2641,51.948],[9.2717,51.9526],[9.2777,51.9621],[9.2643,51.9758],[9.2558,51.977],[9.229,51.9749],[9.2184,51.9739],[9.2165,51.9736],[9.2101,51.9655],[9.2104,51.9604],[9.2059,51.9593],[9.1899,51.9645],[9.1754,51.9807],[9.1739,51.9843],[9.1855,51.9995],[9.1972,52.0103],[9.1888,52.0265],[9.1801,52.0302],[9.1757,52.0344],[9.1732,52.0401],[9.1722,52.0476],[9.1732,52.0598],[9.1734,52.0604],[9.1811,52.068],[9.1893,52.0691],[9.1896,52.0721],[9.1819,52.0803],[9.1756,52.0855],[9.1748,52.0862],[9.155,52.0973]]]},"properties":{"warnId":"mow.DE-NI-HM-W214-20261010-001","strokeColor":"#C4C4C4","strokeOpacity":1,"strokeWeight":1,"fillColor":"#C4C4C4","fillOpacity":0.5,"zIndex":0},"id":"0"}]}