{"type":"FeatureCollection","features":[{"type":"Feature","geometry":{"type":"Polygon","coordinates":[[[6.8605,50.7634],[6.8665,50.7688],[6.8665,50.778],[6.8704,50.7801],[6.864,50.7848],[6.8709,50.7908],[6.8827,50.7933],[6.8839,50.796],[6.8975,50.7973],[6.9087,50.8015],[6.9133,50.7991],[6.9343,50.8054],[6.9421,50.804],[6.958,50.8043],[6.9662,50.7995],[6.9694,50.8015],[6.9755,50.7984],[6.9828,50.8008],[6.9868,50.7977],[6.9891,50.7985],[6.9898,50.7923],[7.0166,50.7989],[7.0148,50.8005],[7.0192,50.8025],[7.0302,50.8007],[7.0302,50.7938],[7.0359,50.7855],[7.066,50.7711],[7.0565,50.7643],[7.0513,50.7649],[7.0401,50.7604],[7.037,50.7552],[7.0299,50.7566],[7.0052,50.744],[6.9923,50.744],[6.9788,50.7288],[6.9733,50.7258],[6.9644,50.7249],[6.961,50.719],[6.9374,50.7274],[6.9415,50.7303],[6.9389,50.7321],[6.9194,50.7317],[6.9158,50.734],[6.9038,50.7435],[6.9021,50.7507],[6.8955,50.7465],[6.8807,50.7464],[6.867,50.7618],[6.8605,50.7634]]]},"properties":{"warnId":"mow.DE-NW-SU-SE057-20261009-57-000","strokeColor":"#FB8C00","strokeOpacity":1,"strokeWeight":1,"fillColor":"#FB8C00","fillOpacity":0.5,"zIndex":20},"id":"0"}]}