{"type":"FeatureCollection","features":[{"type":"Feature","geometry":{"type":"Polygon","coordinates":[[[11.8602,51.2857],[11.8602,51.2866],[11.8605,51.2875],[11.8611,51.2883],[11.862,51.289],[11.863,51.2896],[11.8642,51.2901],[11.8656,51.2904],[11.867,51.2906],[11.8684,51.2905],[11.8698,51.2903],[11.8711,51.2899],[11.8722,51.2894],[11.8732,51.2888],[11.8739,51.288],[11.8744,51.2872],[11.8746,51.2863],[11.8746,51.2854],[11.8742,51.2845],[11.8736,51.2837],[11.8728,51.283],[11.8718,51.2824],[11.8706,51.2819],[11.8692,51.2816],[11.8678,51.2815],[11.8664,51.2815],[11.865,51.2817],[11.8637,51.2821],[11.8626,51.2826],[11.8616,51.2833],[11.8609,51.284],[11.8604,51.2849],[11.8602,51.2857]]]},"properties":{"warnId":"mow.DE-ST-SK-W070-20261001-000","strokeColor":"#C4C4C4","strokeOpacity":1,"strokeWeight":1,"fillColor":"#C4C4C4","fillOpacity":0.5,"zIndex":0},"id":"0"}]}