{"type":"FeatureCollection","features":[{"type":"Feature","geometry":{"type":"Polygon","coordinates":[[[8.9614,53.0852],[8.9657,53.09],[8.9909,53.0967],[8.9947,53.0985],[9.0348,53.0977],[9.0634,53.1034],[9.0815,53.1035],[9.0814,53.1008],[9.0932,53.1042],[9.1072,53.1043],[9.0969,53.0998],[9.1019,53.0895],[9.1194,53.0903],[9.1336,53.0823],[9.145,53.0818],[9.1443,53.0762],[9.1509,53.0639],[9.1413,53.0585],[9.1284,53.0555],[9.1219,53.0538],[9.1171,53.0554],[9.1028,53.0467],[9.092,53.0468],[9.0837,53.0524],[9.0817,53.0461],[9.0733,53.0489],[9.0756,53.0507],[9.0727,53.053],[9.0682,53.0529],[9.0702,53.0485],[9.0485,53.0519],[9.0423,53.0469],[9.033,53.047],[9.0307,53.0502],[9.0268,53.0505],[9.0266,53.0477],[9.0185,53.0466],[9.0159,53.0414],[9.0095,53.0451],[8.9954,53.037],[8.9793,53.0458],[8.9698,53.0568],[8.9637,53.0574],[8.9627,53.0611],[8.9677,53.0636],[8.9636,53.0717],[8.9657,53.0827],[8.9614,53.0852]]]},"properties":{"warnId":"mow.DE-NI-VER-W077-20261001-000","strokeColor":"#FB8C00","strokeOpacity":1,"strokeWeight":1,"fillColor":"#FB8C00","fillOpacity":0.5,"zIndex":20},"id":"0"}]}