{"type":"FeatureCollection","features":[{"type":"Feature","geometry":{"type":"Polygon","coordinates":[[[11.8793,50.3066],[11.8794,50.3075],[11.8797,50.3084],[11.8803,50.3092],[11.8811,50.3099],[11.8821,50.3105],[11.8833,50.311],[11.8846,50.3113],[11.886,50.3114],[11.8873,50.3114],[11.8887,50.3112],[11.8899,50.3108],[11.8911,50.3103],[11.892,50.3096],[11.8927,50.3089],[11.8932,50.3081],[11.8934,50.3072],[11.8934,50.3063],[11.893,50.3054],[11.8925,50.3046],[11.8916,50.3039],[11.8906,50.3033],[11.8895,50.3029],[11.8882,50.3025],[11.8868,50.3024],[11.8854,50.3024],[11.8841,50.3027],[11.8828,50.303],[11.8817,50.3035],[11.8808,50.3042],[11.88,50.3049],[11.8796,50.3058],[11.8793,50.3066]]]},"properties":{"warnId":"mow.DE-BY-HO-SE158-20261001-190-001","strokeColor":"#C4C4C4","strokeOpacity":1,"strokeWeight":1,"fillColor":"#C4C4C4","fillOpacity":0.5,"zIndex":0},"id":"0"}]}