{"type":"FeatureCollection","features":[{"type":"Feature","geometry":{"type":"Polygon","coordinates":[[[6.5192,51.0858],[6.5359,51.0917],[6.5435,51.0979],[6.5561,51.1008],[6.558,51.1059],[6.5743,51.1146],[6.5795,51.1301],[6.575,51.1386],[6.5825,51.1415],[6.5939,51.1404],[6.5939,51.1441],[6.5842,51.1458],[6.586,51.1515],[6.5935,51.1513],[6.6069,51.1417],[6.6096,51.1489],[6.6145,51.149],[6.6149,51.1511],[6.6251,51.1507],[6.6282,51.1532],[6.6393,51.1471],[6.6356,51.1449],[6.6539,51.1351],[6.6582,51.1383],[6.6557,51.1406],[6.6626,51.1459],[6.6696,51.1311],[6.6798,51.1336],[6.6824,51.1322],[6.6864,51.1351],[6.6957,51.1326],[6.7097,51.1326],[6.7148,51.1185],[6.7049,51.1128],[6.7007,51.1147],[6.6964,51.1012],[6.6928,51.1007],[6.6862,51.1106],[6.6829,51.1114],[6.6653,51.0999],[6.6555,51.1037],[6.6479,51.0927],[6.6535,51.0888],[6.6479,51.0831],[6.6586,51.0771],[6.6389,51.061],[6.6435,51.0579],[6.6365,51.0559],[6.6269,51.0465],[6.6245,51.0384],[6.6367,51.0399],[6.6373,51.0268],[6.6045,51.021],[6.5917,51.0218],[6.5824,51.018],[6.579,51.0181],[6.5786,51.0239],[6.5655,51.0217],[6.5487,51.0263],[6.5613,51.0352],[6.5533,51.0558],[6.5377,51.0521],[6.5345,51.0591],[6.5266,51.0584],[6.5281,51.0674],[6.5351,51.0712],[6.5361,51.0781],[6.5329,51.0778],[6.532,51.0813],[6.5229,51.0827],[6.5192,51.0858]]]},"properties":{"warnId":"mow.DE-NW-NE-SE044-20261007-44-001","strokeColor":"#C4C4C4","strokeOpacity":1,"strokeWeight":1,"fillColor":"#C4C4C4","fillOpacity":0.5,"zIndex":0},"id":"0"}]}