{"type":"FeatureCollection","features":[{"type":"Feature","geometry":{"type":"Polygon","coordinates":[[[12.1702,50.6441],[12.1703,50.6454],[12.1708,50.6467],[12.1716,50.6479],[12.1729,50.649],[12.1744,50.6499],[12.1762,50.6506],[12.1782,50.651],[12.1803,50.6512],[12.1824,50.6512],[12.1844,50.6509],[12.1863,50.6503],[12.188,50.6495],[12.1894,50.6485],[12.1905,50.6474],[12.1912,50.6461],[12.1915,50.6448],[12.1914,50.6435],[12.1909,50.6422],[12.1901,50.641],[12.1888,50.6399],[12.1873,50.639],[12.1855,50.6383],[12.1835,50.6379],[12.1814,50.6377],[12.1793,50.6377],[12.1773,50.638],[12.1754,50.6386],[12.1737,50.6394],[12.1723,50.6404],[12.1712,50.6415],[12.1705,50.6428],[12.1702,50.6441]]]},"properties":{"warnId":"mow.DE-TH-G-W109-20261002-001","strokeColor":"#FB8C00","strokeOpacity":1,"strokeWeight":1,"fillColor":"#FB8C00","fillOpacity":0.5,"zIndex":20},"id":"0"}]}