{"type":"FeatureCollection","features":[{"type":"Feature","geometry":{"type":"Polygon","coordinates":[[[9.2456,49.0083],[9.251,49.0232],[9.2534,49.0258],[9.2536,49.0259],[9.2544,49.0265],[9.2557,49.0276],[9.2587,49.0273],[9.2586,49.0287],[9.26,49.0287],[9.261,49.0295],[9.2636,49.0303],[9.2659,49.0304],[9.266,49.0295],[9.2676,49.0304],[9.2683,49.0317],[9.2681,49.0321],[9.2688,49.0323],[9.2769,49.0213],[9.2578,49.0067],[9.2456,49.0083]]]},"properties":{"warnId":"mow.DE-BW-LB-W026-20261008-000","strokeColor":"#C4C4C4","strokeOpacity":1,"strokeWeight":1,"fillColor":"#C4C4C4","fillOpacity":0.5,"zIndex":0},"id":"0"}]}