{"type":"FeatureCollection","features":[{"type":"Feature","geometry":{"type":"Polygon","coordinates":[[[8.2648,48.8454],[8.2695,48.8522],[8.2739,48.8472],[8.2781,48.8495],[8.2828,48.8466],[8.285,48.8477],[8.2982,48.843],[8.298,48.8412],[8.3078,48.8414],[8.2991,48.8373],[8.2936,48.8296],[8.2897,48.8311],[8.2855,48.8287],[8.2652,48.8332],[8.2648,48.8454]]]},"properties":{"warnId":"mow.DE-BW-RA-W025-20261002-000","strokeColor":"#FB8C00","strokeOpacity":1,"strokeWeight":1,"fillColor":"#FB8C00","fillOpacity":0.5,"zIndex":20},"id":"0"}]}