{"type":"FeatureCollection","features":[{"type":"Feature","geometry":{"type":"Polygon","coordinates":[[[12.0706,50.5907],[12.0707,50.5925],[12.0711,50.5942],[12.0718,50.596],[12.0727,50.5976],[12.0739,50.5992],[12.0753,50.6007],[12.0769,50.6022],[12.0788,50.6035],[12.0808,50.6047],[12.083,50.6058],[12.0854,50.6067],[12.0879,50.6074],[12.0905,50.608],[12.0932,50.6085],[12.0959,50.6088],[12.0987,50.6089],[12.1015,50.6088],[12.1042,50.6085],[12.1069,50.6081],[12.1096,50.6075],[12.1121,50.6068],[12.1145,50.6059],[12.1167,50.6049],[12.1188,50.6037],[12.1207,50.6024],[12.1223,50.601],[12.1238,50.5995],[12.1239,50.5993],[12.1238,50.5992],[12.1235,50.5991],[12.1228,50.5991],[12.1224,50.5991],[12.1221,50.5986],[12.1159,50.5974],[12.1149,50.597],[12.1144,50.596],[12.1134,50.5947],[12.1134,50.5936],[12.1127,50.5912],[12.1125,50.5903],[12.1122,50.5901],[12.112,50.5898],[12.1108,50.5891],[12.1102,50.5887],[12.1128,50.5877],[12.1163,50.5872],[12.1184,50.5864],[12.1217,50.5857],[12.1247,50.5844],[12.1258,50.5852],[12.1251,50.5841],[12.124,50.5825],[12.1226,50.5809],[12.1209,50.5795],[12.1191,50.5782],[12.117,50.577],[12.1148,50.5759],[12.1124,50.575],[12.1099,50.5743],[12.1073,50.5736],[12.1056,50.5734],[12.1042,50.5748],[12.1041,50.5757],[12.1037,50.5762],[12.1023,50.5771],[12.1013,50.5779],[12.1015,50.5789],[12.0974,50.5784],[12.0954,50.5788],[12.0867,50.5789],[12.0836,50.5786],[12.0807,50.5771],[12.0791,50.578],[12.0772,50.5793],[12.0755,50.5807],[12.0741,50.5822],[12.0729,50.5838],[12.0719,50.5855],[12.0712,50.5872],[12.0708,50.5889],[12.0706,50.5907]]]},"properties":{"warnId":"mow.DE-TH-G-W109-20261007-002","strokeColor":"#C4C4C4","strokeOpacity":1,"strokeWeight":1,"fillColor":"#C4C4C4","fillOpacity":0.5,"zIndex":0},"id":"0"}]}