{"type":"FeatureCollection","features":[{"type":"Feature","geometry":{"type":"Polygon","coordinates":[[[13.3379,50.9871],[13.3381,50.9915],[13.3385,50.9959],[13.3392,51.0003],[13.3401,51.0046],[13.3414,51.0088],[13.3429,51.0128],[13.3446,51.0166],[13.3466,51.0202],[13.3487,51.0235],[13.3511,51.0266],[13.3536,51.0293],[13.3563,51.0316],[13.3591,51.0336],[13.3619,51.0352],[13.3648,51.0364],[13.3678,51.0371],[13.3707,51.0374],[13.3736,51.0373],[13.3765,51.0368],[13.3793,51.0358],[13.382,51.0344],[13.3845,51.0327],[13.3869,51.0305],[13.3891,51.0279],[13.3911,51.0251],[13.3928,51.0219],[13.3944,51.0184],[13.3956,51.0147],[13.3967,51.0108],[13.3974,51.0067],[13.3978,51.0024],[13.398,50.9981],[13.3979,50.9937],[13.3975,50.9893],[13.3967,50.9849],[13.3958,50.9806],[13.3945,50.9764],[13.393,50.9724],[13.3913,50.9686],[13.3893,50.965],[13.3871,50.9617],[13.3848,50.9586],[13.3823,50.9559],[13.3796,50.9536],[13.3769,50.9516],[13.374,50.95],[13.3711,50.9488],[13.3682,50.9481],[13.3652,50.9477],[13.3623,50.9479],[13.3594,50.9484],[13.3567,50.9494],[13.354,50.9507],[13.3514,50.9525],[13.3491,50.9547],[13.3469,50.9572],[13.3449,50.9601],[13.3431,50.9633],[13.3416,50.9668],[13.3403,50.9705],[13.3393,50.9744],[13.3385,50.9785],[13.3381,50.9828],[13.3379,50.9871]]]},"properties":{"warnId":"mow.DE-SN-C-W092-20261004-001","strokeColor":"#C4C4C4","strokeOpacity":1,"strokeWeight":1,"fillColor":"#C4C4C4","fillOpacity":0.5,"zIndex":0},"id":"0"}]}