{"type":"FeatureCollection","features":[{"type":"Feature","geometry":{"type":"Polygon","coordinates":[[[11.0027,49.8804],[11.0028,49.8821],[11.0033,49.8836],[11.0043,49.8851],[11.0058,49.8864],[11.0076,49.8875],[11.0097,49.8884],[11.0121,49.889],[11.0145,49.8893],[11.017,49.8892],[11.0195,49.8889],[11.0217,49.8882],[11.0238,49.8873],[11.0255,49.8861],[11.0268,49.8847],[11.0277,49.8832],[11.0282,49.8816],[11.0281,49.88],[11.0275,49.8784],[11.0265,49.877],[11.0251,49.8756],[11.0233,49.8745],[11.0211,49.8737],[11.0188,49.8731],[11.0163,49.8728],[11.0138,49.8728],[11.0114,49.8732],[11.0091,49.8739],[11.0071,49.8748],[11.0054,49.876],[11.004,49.8773],[11.0031,49.8789],[11.0027,49.8804]]]},"properties":{"warnId":"mow.DE-BY-BA-W140-20261007-000","strokeColor":"#C4C4C4","strokeOpacity":1,"strokeWeight":1,"fillColor":"#C4C4C4","fillOpacity":0.5,"zIndex":0},"id":"0"}]}