{"type":"FeatureCollection","features":[{"type":"Feature","geometry":{"type":"Polygon","coordinates":[[[7.33,52.5483],[7.3305,52.5501],[7.3316,52.5517],[7.3332,52.5532],[7.3352,52.5545],[7.3376,52.5555],[7.3402,52.5562],[7.3431,52.5566],[7.346,52.5567],[7.3488,52.5564],[7.3516,52.5557],[7.354,52.5548],[7.3561,52.5535],[7.3578,52.5521],[7.359,52.5505],[7.3596,52.5487],[7.3597,52.547],[7.3592,52.5452],[7.3581,52.5435],[7.3565,52.542],[7.3545,52.5408],[7.3522,52.5398],[7.3495,52.539],[7.3467,52.5386],[7.3437,52.5386],[7.3409,52.5389],[7.3382,52.5396],[7.3357,52.5405],[7.3336,52.5417],[7.3319,52.5432],[7.3307,52.5448],[7.3301,52.5465],[7.33,52.5483]]]},"properties":{"warnId":"mow.DE-NI-EL-W089-20261001-001","strokeColor":"#C4C4C4","strokeOpacity":1,"strokeWeight":1,"fillColor":"#C4C4C4","fillOpacity":0.5,"zIndex":0},"id":"0"}]}