{"type":"FeatureCollection","features":[{"type":"Feature","geometry":{"type":"Polygon","coordinates":[[[10.9747,48.7777],[10.9783,48.8096],[11.0059,48.8228],[11.0341,48.8221],[11.0421,48.8206],[11.0466,48.8147],[11.0377,48.8108],[11.0378,48.8087],[11.0398,48.8],[11.0555,48.7932],[11.067,48.7949],[11.0886,48.8057],[11.1163,48.813],[11.1202,48.813],[11.1219,48.8126],[11.1239,48.8119],[11.1257,48.8109],[11.1266,48.8101],[11.1431,48.8003],[11.1654,48.7909],[11.2252,48.7715],[11.2342,48.7735],[11.2559,48.7795],[11.2826,48.7597],[11.3129,48.7331],[11.3144,48.7308],[11.3269,48.7222],[11.3566,48.7106],[11.3766,48.69],[11.3812,48.688],[11.3939,48.6846],[11.3954,48.6848],[11.4071,48.6928],[11.425,48.6977],[11.4331,48.6993],[11.4467,48.7014],[11.4553,48.6984],[11.4571,48.69],[11.4394,48.649],[11.4371,48.6471],[11.427,48.6431],[11.404,48.643],[11.3984,48.6407],[11.384,48.6342],[11.3476,48.6086],[11.3461,48.6073],[11.3449,48.606],[11.3464,48.6026],[11.3472,48.6015],[11.3489,48.5996],[11.3531,48.5987],[11.3563,48.5982],[11.3604,48.5977],[11.3618,48.5972],[11.3834,48.5873],[11.385,48.5853],[11.3841,48.5824],[11.373,48.5735],[11.3642,48.572],[11.3543,48.576],[11.3469,48.5766],[11.3449,48.5765],[11.3434,48.5762],[11.3417,48.5751],[11.336,48.5703],[11.339,48.5652],[11.3417,48.5611],[11.3441,48.5587],[11.3503,48.5535],[11.3528,48.5517],[11.3551,48.5504],[11.358,48.549],[11.3596,48.5479],[11.3607,48.547],[11.3616,48.5455],[11.3625,48.5425],[11.3242,48.518],[11.2954,48.4746],[11.2806,48.4741],[11.2768,48.4737],[11.2757,48.4729],[11.2748,48.4723],[11.2731,48.4665],[11.2688,48.464],[11.2668,48.4641],[11.2581,48.4678],[11.214,48.4955],[11.2114,48.499],[11.2098,48.5045],[11.2107,48.5145],[11.2075,48.5266],[11.2022,48.53],[11.1819,48.5388],[11.1642,48.5445],[11.1566,48.5624],[11.1575,48.5634],[11.1651,48.5803],[11.1622,48.5884],[11.155,48.5942],[11.1197,48.6073],[11.1077,48.6082],[11.0938,48.6045],[11.0634,48.602],[11.051,48.6016],[11.0474,48.6032],[11.0377,48.6082],[11.0229,48.6204],[11.0387,48.6268],[11.0414,48.6281],[11.0399,48.6459],[11.0383,48.6474],[11.0319,48.6496],[11.0166,48.6527],[11.0013,48.6671],[10.9865,48.6892],[10.9842,48.6925],[10.9842,48.6934],[10.9838,48.7239],[10.9853,48.7464],[10.9952,48.7493],[10.9983,48.7619],[10.9981,48.7647],[10.9747,48.7777]]]},"properties":{"warnId":"mow.DE-BY-IN-W139-20261010-001","strokeColor":"#C4C4C4","strokeOpacity":1,"strokeWeight":1,"fillColor":"#C4C4C4","fillOpacity":0.5,"zIndex":0},"id":"0"}]}