{"type":"FeatureCollection","features":[{"type":"Feature","geometry":{"type":"Polygon","coordinates":[[[11.7545,50.9697],[11.755,50.9786],[11.7569,50.9873],[11.7602,50.9959],[11.7647,51.0042],[11.7706,51.0123],[11.7776,51.0199],[11.7858,51.027],[11.7951,51.0337],[11.8054,51.0397],[11.8165,51.045],[11.8285,51.0496],[11.8379,51.0525],[11.839,51.0526],[11.8436,51.052],[11.8472,51.053],[11.85,51.0526],[11.8523,51.0519],[11.8541,51.0525],[11.8564,51.0529],[11.8575,51.0537],[11.8603,51.0548],[11.8615,51.0523],[11.8623,51.0515],[11.8631,51.0511],[11.8645,51.0516],[11.8647,51.0524],[11.8669,51.0524],[11.8688,51.0525],[11.8681,51.0542],[11.8747,51.0571],[11.8766,51.0565],[11.8778,51.0569],[11.8823,51.0556],[11.8833,51.0564],[11.8837,51.0564],[11.8842,51.0565],[11.8846,51.0565],[11.8851,51.0566],[11.8855,51.0565],[11.886,51.0564],[11.8865,51.0562],[11.8888,51.0558],[11.8912,51.0546],[11.8906,51.0533],[11.8943,51.0514],[11.8967,51.0505],[11.8946,51.0488],[11.8947,51.0471],[11.896,51.0462],[11.8975,51.0453],[11.8992,51.0459],[11.8995,51.045],[11.9036,51.0442],[11.9077,51.0454],[11.9087,51.0448],[11.9102,51.0455],[11.9105,51.0453],[11.9109,51.045],[11.9109,51.0447],[11.9108,51.0444],[11.9106,51.044],[11.9105,51.0437],[11.9104,51.0433],[11.9104,51.0429],[11.9104,51.0424],[11.9105,51.042],[11.9107,51.0416],[11.911,51.0412],[11.9114,51.0409],[11.9119,51.0406],[11.9124,51.0402],[11.9128,51.0399],[11.9134,51.0395],[11.9137,51.0392],[11.914,51.0389],[11.9144,51.0386],[11.9148,51.0383],[11.9154,51.0379],[11.9131,51.036],[11.9146,51.0342],[11.913,51.0337],[11.9146,51.0315],[11.913,51.0303],[11.9109,51.0296],[11.9119,51.0282],[11.9128,51.028],[11.9166,51.0267],[11.9215,51.0263],[11.9276,51.0276],[11.9323,51.0294],[11.9318,51.0301],[11.9334,51.0307],[11.9343,51.0301],[11.937,51.0297],[11.9401,51.0306],[11.9431,51.0324],[11.9471,51.0291],[11.948,51.0286],[11.9539,51.0258],[11.954,51.0245],[11.955,51.0233],[11.9583,51.021],[11.9607,51.0202],[11.9609,51.0211],[11.9627,51.0208],[11.9627,51.0222],[11.9646,51.0212],[11.9653,51.0205],[11.9651,51.0193],[11.9652,51.0183],[11.9666,51.0182],[11.9685,51.0183],[11.9695,51.0173],[11.9712,51.0178],[11.9723,51.0186],[11.9727,51.0183],[11.9732,51.0181],[11.9737,51.0179],[11.9742,51.0177],[11.975,51.0173],[11.9768,51.0167],[11.9771,51.0165],[11.9774,51.0162],[11.9776,51.0159],[11.9778,51.0156],[11.978,51.0153],[11.9783,51.015],[11.9788,51.0149],[11.9792,51.0147],[11.9801,51.0143],[11.9803,51.0123],[11.9763,51.0122],[11.9747,51.0098],[11.9752,51.0068],[11.9779,51.0053],[11.9786,51.0037],[11.978,51.002],[11.977,51.002],[11.9764,51.0002],[11.9758,50.9992],[11.9726,50.9999],[11.9694,50.9993],[11.9685,50.9992],[11.9684,50.9975],[11.9699,50.9943],[11.9723,50.9943],[11.9729,50.9943],[11.974,50.9925],[11.974,50.9921],[11.9742,50.9903],[11.9797,50.9916],[11.9805,50.9907],[11.9844,50.9909],[11.9871,50.9914],[11.9885,50.9916],[11.9891,50.9917],[11.9925,50.9921],[11.9944,50.9928],[11.9965,50.9932],[11.9978,50.9926],[11.9979,50.9915],[11.9989,50.9904],[11.9993,50.9886],[12.0066,50.991],[12.0077,50.9898],[12.0069,50.9862],[12.0087,50.9839],[12.0112,50.9842],[12.0143,50.9839],[12.0137,50.9824],[12.0143,50.9821],[12.0153,50.981],[12.0172,50.9791],[12.0171,50.9766],[12.0148,50.9764],[12.0146,50.9758],[12.0107,50.9747],[12.0106,50.9722],[12.011,50.97],[12.0139,50.9701],[12.0141,50.9687],[12.017,50.9693],[12.0188,50.9697],[12.021,50.9691],[12.0192,50.9682],[12.0172,50.9682],[12.0191,50.9623],[12.018,50.9614],[12.0175,50.9609],[12.0178,50.9586],[12.0177,50.958],[12.0193,50.9558],[12.019,50.9543],[12.0176,50.9522],[12.0199,50.9517],[12.0198,50.9501],[12.0212,50.948],[12.0149,50.9486],[12.0112,50.9487],[12.0109,50.9481],[12.0106,50.9476],[12.0081,50.9479],[12.0074,50.9482],[12.007,50.9483],[12.0057,50.9481],[12.0044,50.9483],[12.004,50.9487],[12.0009,50.9493],[11.9975,50.9504],[11.9931,50.9513],[11.9923,50.9521],[11.9905,50.9538],[11.9905,50.9546],[11.9905,50.9554],[11.9873,50.9565],[11.9865,50.9565],[11.9872,50.9539],[11.9866,50.9537],[11.9853,50.9532],[11.985,50.9531],[11.9843,50.953],[11.984,50.9527],[11.9833,50.9526],[11.9812,50.9523],[11.9799,50.9519],[11.9784,50.9514],[11.9768,50.9508],[11.9745,50.95],[11.9728,50.9493],[11.9713,50.9487],[11.9689,50.9477],[11.9666,50.9472],[11.9655,50.9475],[11.9633,50.9466],[11.9631,50.9458],[11.9577,50.9446],[11.96,50.938],[11.9616,50.9385],[11.9624,50.9375],[11.9646,50.9376],[11.9669,50.9344],[11.965,50.9338],[11.9657,50.9318],[11.9649,50.9314],[11.9635,50.9311],[11.9593,50.9311],[11.9628,50.9262],[11.9629,50.9252],[11.9542,50.9254],[11.9521,50.925],[11.9494,50.9241],[11.9506,50.9227],[11.9502,50.9205],[11.9524,50.9163],[11.9516,50.9162],[11.9502,50.9161],[11.9474,50.9156],[11.9427,50.9154],[11.9367,50.9146],[11.9323,50.9147],[11.9289,50.9143],[11.9246,50.9146],[11.9228,50.9143],[11.9246,50.9104],[11.9235,50.9077],[11.9194,50.9067],[11.9172,50.9063],[11.9144,50.9046],[11.9152,50.9017],[11.9171,50.8986],[11.9173,50.8969],[11.9178,50.8957],[11.9176,50.8935],[11.9123,50.8945],[11.9059,50.8946],[11.9055,50.8953],[11.9017,50.8953],[11.9015,50.8955],[11.899,50.8989],[11.898,50.8986],[11.8963,50.8982],[11.8975,50.8963],[11.898,50.8954],[11.8908,50.8953],[11.8892,50.8936],[11.887,50.8917],[11.8845,50.8905],[11.884,50.89],[11.8829,50.889],[11.8809,50.8877],[11.8793,50.8865],[11.8788,50.8856],[11.8779,50.8843],[11.8771,50.8833],[11.8759,50.8825],[11.8747,50.8819],[11.8706,50.8823],[11.8571,50.8843],[11.8439,50.8872],[11.8312,50.8909],[11.8191,50.8954],[11.8078,50.9006],[11.7974,50.9064],[11.7879,50.9129],[11.7794,50.9199],[11.7721,50.9274],[11.766,50.9354],[11.7611,50.9437],[11.7576,50.9522],[11.7553,50.9609],[11.7545,50.9697]]]},"properties":{"warnId":"mow.DE-TH-J-W110-20260930-001","strokeColor":"#FB8C00","strokeOpacity":1,"strokeWeight":1,"fillColor":"#FB8C00","fillOpacity":0.5,"zIndex":20},"id":"0"}]}