{"type":"FeatureCollection","features":[{"type":"Feature","geometry":{"type":"Polygon","coordinates":[[[8.8049,47.7245],[8.8119,47.7304],[8.8085,47.7311],[8.8064,47.7383],[8.8093,47.7421],[8.8102,47.7439],[8.8347,47.7517],[8.8365,47.7486],[8.8412,47.7477],[8.8411,47.7417],[8.8604,47.742],[8.8634,47.7383],[8.874,47.7412],[8.8796,47.7402],[8.8808,47.7367],[8.8869,47.7343],[8.8807,47.7312],[8.8817,47.7282],[8.8779,47.7285],[8.8689,47.7174],[8.8714,47.705],[8.8483,47.7035],[8.8433,47.7121],[8.8331,47.7143],[8.8254,47.711],[8.8188,47.7129],[8.8262,47.7179],[8.8186,47.7176],[8.8128,47.7237],[8.8049,47.7245]]]},"properties":{"warnId":"mow.DE-BW-KN-W131-20261009-000","strokeColor":"#FB8C00","strokeOpacity":1,"strokeWeight":1,"fillColor":"#FB8C00","fillOpacity":0.5,"zIndex":20},"id":"0"}]}