{"type":"FeatureCollection","features":[{"type":"Feature","geometry":{"type":"Polygon","coordinates":[[[9.8182,52.3936],[9.8182,52.395],[9.8184,52.3963],[9.8189,52.3976],[9.8195,52.3989],[9.8204,52.4001],[9.8214,52.4012],[9.8226,52.4023],[9.824,52.4033],[9.8256,52.4043],[9.8273,52.4051],[9.8291,52.4058],[9.831,52.4064],[9.833,52.4069],[9.8351,52.4073],[9.8373,52.4075],[9.8394,52.4077],[9.8416,52.4076],[9.8438,52.4075],[9.8459,52.4072],[9.8479,52.4068],[9.8499,52.4063],[9.8518,52.4057],[9.8536,52.4049],[9.8553,52.4041],[9.8568,52.4031],[9.8582,52.4021],[9.8593,52.401],[9.8603,52.3998],[9.8612,52.3986],[9.8617,52.3973],[9.8621,52.396],[9.8623,52.3947],[9.8623,52.3933],[9.8621,52.392],[9.8616,52.3907],[9.861,52.3894],[9.8601,52.3882],[9.8591,52.3871],[9.8578,52.386],[9.8565,52.3849],[9.8549,52.384],[9.8532,52.3832],[9.8514,52.3825],[9.8495,52.3819],[9.8475,52.3814],[9.8454,52.381],[9.8432,52.3807],[9.8411,52.3806],[9.8389,52.3807],[9.8368,52.3808],[9.8346,52.3811],[9.8326,52.3815],[9.8306,52.382],[9.8287,52.3826],[9.8269,52.3834],[9.8252,52.3842],[9.8237,52.3852],[9.8223,52.3862],[9.8212,52.3873],[9.8202,52.3885],[9.8194,52.3897],[9.8187,52.391],[9.8183,52.3923],[9.8182,52.3936]]]},"properties":{"warnId":"mow.DE-NI-H-SE110-20261004-110-001","strokeColor":"#C4C4C4","strokeOpacity":1,"strokeWeight":1,"fillColor":"#C4C4C4","fillOpacity":0.5,"zIndex":0},"id":"0"}]}