{"type":"FeatureCollection","features":[{"type":"Feature","geometry":{"type":"Polygon","coordinates":[[[9.9164,53.6911],[9.9164,53.6917],[9.9167,53.6924],[9.9171,53.693],[9.9177,53.6935],[9.9185,53.694],[9.9195,53.6943],[9.9205,53.6946],[9.9216,53.6947],[9.9227,53.6947],[9.9238,53.6946],[9.9248,53.6943],[9.9257,53.6939],[9.9265,53.6935],[9.9271,53.6929],[9.9275,53.6923],[9.9277,53.6916],[9.9277,53.691],[9.9275,53.6903],[9.9271,53.6897],[9.9264,53.6892],[9.9256,53.6887],[9.9247,53.6883],[9.9236,53.6881],[9.9226,53.688],[9.9214,53.688],[9.9203,53.6881],[9.9193,53.6884],[9.9184,53.6888],[9.9176,53.6892],[9.917,53.6898],[9.9166,53.6904],[9.9164,53.6911]]]},"properties":{"warnId":"mow.DE-SH-EH-SE028-20261003-28-000","strokeColor":"#FB8C00","strokeOpacity":1,"strokeWeight":1,"fillColor":"#FB8C00","fillOpacity":0.5,"zIndex":20},"id":"0"}]}