{"type":"FeatureCollection","features":[{"type":"Feature","geometry":{"type":"Polygon","coordinates":[[[7.6097,50.2871],[7.6097,50.2885],[7.6101,50.2899],[7.6102,50.2901],[7.6118,50.289],[7.6218,50.2831],[7.6249,50.2812],[7.6244,50.281],[7.6223,50.2807],[7.6201,50.2807],[7.6179,50.2809],[7.6158,50.2815],[7.6139,50.2822],[7.6123,50.2832],[7.6111,50.2844],[7.6102,50.2857],[7.6097,50.2871]]]},"properties":{"warnId":"mow.DE-RP-KO-SE113-20261007-113-001","strokeColor":"#C4C4C4","strokeOpacity":1,"strokeWeight":1,"fillColor":"#C4C4C4","fillOpacity":0.5,"zIndex":0},"id":"0"}]}