{"type":"FeatureCollection","features":[{"type":"Feature","geometry":{"type":"Polygon","coordinates":[[[6.655,51.1858],[6.6552,51.1863],[6.6555,51.1868],[6.6559,51.1873],[6.6565,51.1877],[6.6572,51.188],[6.658,51.1882],[6.6588,51.1883],[6.6597,51.1883],[6.6605,51.1883],[6.6613,51.1881],[6.662,51.1878],[6.6627,51.1874],[6.6632,51.187],[6.6635,51.1865],[6.6637,51.186],[6.6637,51.1854],[6.6636,51.1849],[6.6633,51.1844],[6.6628,51.1839],[6.6623,51.1835],[6.6616,51.1832],[6.6608,51.183],[6.66,51.1829],[6.6591,51.1829],[6.6583,51.183],[6.6575,51.1832],[6.6567,51.1834],[6.6561,51.1838],[6.6556,51.1842],[6.6553,51.1847],[6.6551,51.1853],[6.655,51.1858]]]},"properties":{"warnId":"mow.DE-NW-NE-SE044-20261007-44-003","strokeColor":"#C4C4C4","strokeOpacity":1,"strokeWeight":1,"fillColor":"#C4C4C4","fillOpacity":0.5,"zIndex":0},"id":"0"}]}